{
  "type": "FeatureCollection",
  "features": [
    {
      "type": "Feature",
      "id": "feature-3",
      "properties": {
        "fillColor": "#b0966a",
        "level": "1",
        "outlineColor": "#000000",
        "__gm_id": "feature-3",
        "__gm_shape": "polygon"
      },
      "geometry": {
        "type": "Polygon",
        "coordinates": [
          [
            [
              -113.99613286198296,
              46.866187624323295
            ],
            [
              -113.99613104788918,
              46.86609193055225
            ],
            [
              -113.99592419994373,
              46.86609368736063
            ],
            [
              -113.99592437029804,
              46.86610306334066
            ],
            [
              -113.99586610856974,
              46.86610355817268
            ],
            [
              -113.99586593858635,
              46.866094202598305
            ],
            [
              -113.9957048116668,
              46.866095571089296
            ],
            [
              -113.99570697681274,
              46.866214206049364
            ],
            [
              -113.99578588535016,
              46.866213451502865
            ],
            [
              -113.99579185298394,
              46.86649687577739
            ],
            [
              -113.9957799635811,
              46.866496976756004
            ],
            [
              -113.9957808859453,
              46.86654774169875
            ],
            [
              -113.99643215531313,
              46.86671577613819
            ],
            [
              -113.99642885048334,
              46.86672176356015
            ],
            [
              -113.99654822829649,
              46.866752564248664
            ],
            [
              -113.9965732176391,
              46.86670729059878
            ],
            [
              -113.99656139761737,
              46.86670453967568
            ],
            [
              -113.99659542814406,
              46.866643794368834
            ],
            [
              -113.99657387887112,
              46.86663811490416
            ],
            [
              -113.99659264292421,
              46.866603367710326
            ],
            [
              -113.99646679051915,
              46.86657107786559
            ],
            [
              -113.99648238085395,
              46.866542195773235
            ],
            [
              -113.99639196883643,
              46.86651899881432
            ],
            [
              -113.99638860198706,
              46.866525098618105
            ],
            [
              -113.99635517241944,
              46.86651647341074
            ],
            [
              -113.99635885357021,
              46.86650980417631
            ],
            [
              -113.99604514685318,
              46.86642886424141
            ],
            [
              -113.99604116396246,
              46.866187853553164
            ],
            [
              -113.99613286198296,
              46.866187624323295
            ]
          ]
        ]
      }
    },
    {
      "type": "Feature",
      "id": "feature-593",
      "properties": {
        "fillColor": "#cccccc",
        "level": "1",
        "label": "Patio",
        "textAngle": 292,
        "textSize": 10,
        "outlineColor": "#000000",
        "__gm_id": "feature-593",
        "__gm_shape": "polygon",
        "labelPoint": [
          -113.996602948,
          46.866681193
        ]
      },
      "geometry": {
        "type": "MultiPolygon",
        "coordinates": [
          [
            [
              [
                -113.99654822829649,
                46.866752564248664
              ],
              [
                -113.99649815142207,
                46.86673964390929
              ],
              [
                -113.99649080250407,
                46.866752958077456
              ],
              [
                -113.99656215316995,
                46.866771367263034
              ],
              [
                -113.99656952154055,
                46.86675801786015
              ],
              [
                -113.99658128739861,
                46.866761053570805
              ],
              [
                -113.99663967522105,
                46.866655271276706
              ],
              [
                -113.99659539882221,
                46.86664384749384
              ],
              [
                -113.99656183654957,
                46.866704652925364
              ],
              [
                -113.99657307328937,
                46.8667075521216
              ],
              [
                -113.99654822829649,
                46.866752564248664
              ]
            ]
          ]
        ]
      }
    },
    {
      "type": "Feature",
      "id": "feature-781",
      "properties": {
        "fillColor": "#cccccc",
        "level": "1",
        "label": "Patio",
        "textSize": 10,
        "textAngle": 22,
        "outlineColor": "#000000",
        "__gm_id": "feature-781",
        "__gm_shape": "polygon",
        "labelPoint": [
          -113.996445553,
          46.866515543
        ]
      },
      "geometry": {
        "type": "MultiPolygon",
        "coordinates": [
          [
            [
              [
                -113.99648238085395,
                46.866542195773235
              ],
              [
                -113.99649913640785,
                46.866512146722336
              ],
              [
                -113.99640849441994,
                46.86648889074635
              ],
              [
                -113.99639196883643,
                46.86651899881432
              ],
              [
                -113.99648238085395,
                46.866542195773235
              ]
            ]
          ]
        ]
      }
    },
    {
      "type": "Feature",
      "id": "feature-785",
      "properties": {
        "fillColor": "#cccccc",
        "level": "1",
        "label": "Patio",
        "textSize": 10,
        "textAngle": 24,
        "outlineColor": "#000000",
        "__gm_id": "feature-785",
        "__gm_shape": "polygon",
        "labelPoint": [
          -113.996284227,
          46.866472088
        ]
      },
      "geometry": {
        "type": "MultiPolygon",
        "coordinates": [
          [
            [
              [
                -113.99635885357021,
                46.86650980417631
              ],
              [
                -113.99637563263481,
                46.86648044954109
              ],
              [
                -113.99621822024237,
                46.866439835328954
              ],
              [
                -113.99620194579843,
                46.86646932018462
              ],
              [
                -113.99624417407067,
                46.86648021556266
              ],
              [
                -113.99624751626418,
                46.866474160421745
              ],
              [
                -113.99630897729925,
                46.86649001807104
              ],
              [
                -113.99630563510573,
                46.86649607321019
              ],
              [
                -113.99635885357021,
                46.86650980417631
              ]
            ]
          ]
        ]
      }
    },
    {
      "type": "Feature",
      "id": "feature-789",
      "properties": {
        "fillColor": "#cccccc",
        "level": "1",
        "label": "Patio",
        "textSize": 10,
        "textAngle": 22,
        "outlineColor": "#000000",
        "__gm_id": "feature-789",
        "__gm_shape": "polygon",
        "labelPoint": [
          -113.996135987,
          46.866433982
        ]
      },
      "geometry": {
        "type": "MultiPolygon",
        "coordinates": [
          [
            [
              [
                -113.99620194579843,
                46.86646932018462
              ],
              [
                -113.99621822024237,
                46.866439835328954
              ],
              [
                -113.99609165438048,
                46.866406854133295
              ],
              [
                -113.9960515534488,
                46.866417268363826
              ],
              [
                -113.99604514685181,
                46.866428864244746
              ],
              [
                -113.99609810083055,
                46.86644252698506
              ],
              [
                -113.996101392982,
                46.86643656250146
              ],
              [
                -113.99616264864345,
                46.86645236717229
              ],
              [
                -113.99615935649143,
                46.866458331654115
              ],
              [
                -113.99620194579843,
                46.86646932018462
              ]
            ]
          ]
        ]
      }
    },
    {
      "type": "Feature",
      "id": "feature-795",
      "properties": {
        "fillColor": "#b0966a",
        "level": "1",
        "outlineColor": "#000000",
        "label": "Resident Patio",
        "textAngle": 89,
        "textSize": 9,
        "__gm_id": "feature-795",
        "__gm_shape": "polygon",
        "labelPoint": [
          -113.995750844,
          46.866489197
        ]
      },
      "geometry": {
        "type": "MultiPolygon",
        "coordinates": [
          [
            [
              [
                -113.9957808859453,
                46.86654774169875
              ],
              [
                -113.9957799635811,
                46.866496976756004
              ],
              [
                -113.99579185298394,
                46.86649687577739
              ],
              [
                -113.99579037236066,
                46.866426555813554
              ],
              [
                -113.99570983449591,
                46.866427348494284
              ],
              [
                -113.99571204800195,
                46.866532475554415
              ],
              [
                -113.99577869791072,
                46.866551837771176
              ],
              [
                -113.9957808859453,
                46.86654774169875
              ]
            ]
          ]
        ]
      }
    },
    {
      "type": "Feature",
      "id": "feature-799",
      "properties": {
        "fillColor": "#cccccc",
        "level": "1",
        "label": "Patio",
        "textSize": 10,
        "outlineColor": "#000000",
        "textAngle": 91,
        "__gm_id": "feature-799",
        "__gm_shape": "polygon",
        "labelPoint": [
          -113.995747448,
          46.866391093
        ]
      },
      "geometry": {
        "type": "MultiPolygon",
        "coordinates": [
          [
            [
              [
                -113.99578657159445,
                46.86642659322251
              ],
              [
                -113.99578537629414,
                46.866354838201005
              ],
              [
                -113.99570832372494,
                46.86635559657958
              ],
              [
                -113.99570983449591,
                46.866427348494284
              ],
              [
                -113.99578657159445,
                46.86642659322251
              ]
            ]
          ]
        ]
      }
    },
    {
      "type": "Feature",
      "id": "feature-805",
      "properties": {
        "fillColor": "#cccccc",
        "level": "1",
        "label": "Patio",
        "textSize": 10,
        "outlineColor": "#000000",
        "textAngle": 88,
        "__gm_id": "feature-805",
        "__gm_shape": "polygon",
        "labelPoint": [
          -113.995745379,
          46.866248841
        ]
      },
      "geometry": {
        "type": "MultiPolygon",
        "coordinates": [
          [
            [
              [
                -113.99578263654867,
                46.86621348256807
              ],
              [
                -113.99570697681274,
                46.866214206049364
              ],
              [
                -113.995706820422,
                46.8662841993455
              ],
              [
                -113.99578393675883,
                46.866283461491356
              ],
              [
                -113.99578263654867,
                46.86621348256807
              ]
            ]
          ]
        ]
      }
    },
    {
      "type": "Feature",
      "id": "feature-809",
      "properties": {
        "fillColor": "#cccccc",
        "level": "1",
        "textSize": 10,
        "label": "Patio",
        "outlineColor": "#000000",
        "textAngle": 89,
        "__gm_id": "feature-809",
        "__gm_shape": "polygon",
        "labelPoint": [
          -113.995746098,
          46.866319518
        ]
      },
      "geometry": {
        "type": "MultiPolygon",
        "coordinates": [
          [
            [
              [
                -113.99578537629414,
                46.866354838201005
              ],
              [
                -113.9957839363132,
                46.86628344034242
              ],
              [
                -113.995706820422,
                46.8662841993455
              ],
              [
                -113.99570832372494,
                46.86635559657958
              ],
              [
                -113.99578537629414,
                46.866354838201005
              ]
            ]
          ]
        ]
      }
    },
    {
      "type": "Feature",
      "id": "feature-1503",
      "properties": {
        "fillColor": "#cccccc",
        "level": "1",
        "label": "Patio",
        "textAngle": 269,
        "outlineColor": "#000000",
        "textSize": 10,
        "__gm_id": "feature-1503",
        "__gm_shape": "polygon",
        "labelPoint": [
          -113.996152463,
          46.86613202
        ]
      },
      "geometry": {
        "type": "MultiPolygon",
        "coordinates": [
          [
            [
              [
                -113.99613104788918,
                46.86609193055225
              ],
              [
                -113.99613256786031,
                46.8661721093805
              ],
              [
                -113.9961738787983,
                46.866171743299105
              ],
              [
                -113.99617236837379,
                46.86609206812025
              ],
              [
                -113.99613104788918,
                46.86609193055225
              ]
            ]
          ]
        ]
      }
    },
    {
      "type": "Feature",
      "id": "feature-1507",
      "properties": {
        "fillColor": "#cccccc",
        "level": "1",
        "label": "Patio",
        "textSize": 10,
        "textAngle": 268,
        "outlineColor": "#000000",
        "__gm_id": "feature-1507",
        "__gm_shape": "polygon",
        "labelPoint": [
          -113.996071116,
          46.866220869
        ]
      },
      "geometry": {
        "type": "MultiPolygon",
        "coordinates": [
          [
            [
              [
                -113.99609936726975,
                46.86618770805424
              ],
              [
                -113.99604116396246,
                46.866187853553164
              ],
              [
                -113.99604225758843,
                46.866254030655
              ],
              [
                -113.9961010685256,
                46.866253576342444
              ],
              [
                -113.99609936726975,
                46.86618770805424
              ]
            ]
          ]
        ]
      }
    },
    {
      "type": "Feature",
      "id": "feature-1606",
      "properties": {
        "fillColor": "#b0966a",
        "level": "1",
        "label": "Pack",
        "textSize": 10,
        "outlineColor": "#000000",
        "__gm_id": "feature-1606",
        "__gm_shape": "polygon",
        "labelPoint": [
          -113.996013889,
          46.866269036
        ]
      },
      "geometry": {
        "type": "MultiPolygon",
        "coordinates": [
          [
            [
              [
                -113.99598569538057,
                46.866284042242775
              ],
              [
                -113.9960427462715,
                46.866283601525744
              ],
              [
                -113.99604225758843,
                46.866254030655
              ],
              [
                -113.99598503113387,
                46.866254472727896
              ],
              [
                -113.99598569538057,
                46.866284042242775
              ]
            ]
          ]
        ]
      }
    },
    {
      "type": "Feature",
      "id": "feature-1998",
      "properties": {
        "fillColor": "#b0966a",
        "level": "1",
        "label": "Mail",
        "textSize": 10,
        "outlineColor": "#000000",
        "__gm_id": "feature-1998",
        "__gm_shape": "polygon",
        "labelPoint": [
          -113.995956525,
          46.866269365
        ]
      },
      "geometry": {
        "type": "MultiPolygon",
        "coordinates": [
          [
            [
              [
                -113.99598569538057,
                46.866284042242775
              ],
              [
                -113.9959856953812,
                46.866254472727896
              ],
              [
                -113.9959273541439,
                46.86625447272707
              ],
              [
                -113.99592735414359,
                46.866284256874515
              ],
              [
                -113.99598569538057,
                46.866284042242775
              ]
            ]
          ]
        ]
      }
    },
    {
      "type": "Feature",
      "id": "feature-2006",
      "properties": {
        "level": "1",
        "fillColor": "#b0966a",
        "outlineColor": "#000000",
        "__gm_id": "feature-2006",
        "__gm_shape": "polygon"
      },
      "geometry": {
        "type": "MultiPolygon",
        "coordinates": [
          [
            [
              [
                -113.99604428103973,
                46.86637647263942
              ],
              [
                -113.9959863740865,
                46.86637682702104
              ],
              [
                -113.9959868024546,
                46.86640274812749
              ],
              [
                -113.99604470787091,
                46.86640230081017
              ],
              [
                -113.99604428103973,
                46.86637647263942
              ]
            ]
          ]
        ]
      }
    },
    {
      "type": "Feature",
      "id": "feature-2012",
      "properties": {
        "level": "1",
        "fillColor": "#b0966a",
        "outlineColor": "#000000",
        "__gm_id": "feature-2012",
        "__gm_shape": "polygon"
      },
      "geometry": {
        "type": "MultiPolygon",
        "coordinates": [
          [
            [
              [
                -113.9959868024546,
                46.86640274812749
              ],
              [
                -113.9959863740865,
                46.86637682702104
              ],
              [
                -113.99592872124215,
                46.86637727238849
              ],
              [
                -113.9959291496113,
                46.86640319349331
              ],
              [
                -113.9959868024546,
                46.86640274812749
              ]
            ]
          ]
        ]
      }
    },
    {
      "type": "Feature",
      "id": "feature-2020",
      "properties": {
        "level": "1",
        "fillColor": "#b0966a",
        "outlineColor": "#000000",
        "__gm_id": "feature-2020",
        "__gm_shape": "polygon"
      },
      "geometry": {
        "type": "MultiPolygon",
        "coordinates": [
          [
            [
              [
                -113.99592872124215,
                46.86637727238849
              ],
              [
                -113.99597306835261,
                46.86637696547862
              ],
              [
                -113.99597265266361,
                46.866348888121195
              ],
              [
                -113.99592830555213,
                46.866349195031916
              ],
              [
                -113.99592872124215,
                46.86637727238849
              ]
            ]
          ]
        ]
      }
    },
    {
      "type": "Feature",
      "id": "feature-2041",
      "properties": {
        "level": "1",
        "fillColor": "#b0966a",
        "label": "Fitness",
        "outlineColor": "#000000",
        "textSize": 12,
        "__gm_id": "feature-2041",
        "__gm_shape": "polygon",
        "labelPoint": [
          -113.995985813,
          46.866330284
        ]
      },
      "geometry": {
        "type": "MultiPolygon",
        "coordinates": [
          [
            [
              [
                -113.99604428103973,
                46.86637647263942
              ],
              [
                -113.9960427462715,
                46.866283601525744
              ],
              [
                -113.99592734413433,
                46.866284256944546
              ],
              [
                -113.99592830555213,
                46.866349195031916
              ],
              [
                -113.99597265266361,
                46.866348888121195
              ],
              [
                -113.99597306835261,
                46.86637696547862
              ],
              [
                -113.99604428103973,
                46.86637647263942
              ]
            ]
          ]
        ]
      }
    },
    {
      "type": "Feature",
      "id": "feature-2047",
      "properties": {
        "fillColor": "#b0966a",
        "level": "1",
        "outlineColor": "#000000",
        "__gm_id": "feature-2047",
        "__gm_shape": "polygon"
      },
      "geometry": {
        "type": "MultiPolygon",
        "coordinates": [
          [
            [
              [
                -113.99588605189986,
                46.866103388788396
              ],
              [
                -113.995886558716,
                46.86616274485653
              ],
              [
                -113.99592544866422,
                46.866162414555085
              ],
              [
                -113.99592437029804,
                46.86610306334066
              ],
              [
                -113.99588605189986,
                46.866103388788396
              ]
            ]
          ]
        ]
      }
    },
    {
      "type": "Feature",
      "id": "feature-2051",
      "properties": {
        "fillColor": "#b0966a",
        "level": "1",
        "outlineColor": "#000000",
        "__gm_id": "feature-2051",
        "__gm_shape": "polygon"
      },
      "geometry": {
        "type": "MultiPolygon",
        "coordinates": [
          [
            [
              [
                -113.995886558716,
                46.86616274485653
              ],
              [
                -113.99588605190107,
                46.86616271494324
              ],
              [
                -113.99588605190046,
                46.866103558172235
              ],
              [
                -113.99586610856974,
                46.86610355817268
              ],
              [
                -113.9958667735059,
                46.86616274485613
              ],
              [
                -113.995886558716,
                46.86616274485653
              ]
            ]
          ]
        ]
      }
    },
    {
      "type": "Feature",
      "id": "feature-2567",
      "properties": {
        "fillColor": "#b0966a",
        "level": "1",
        "label": "",
        "textSize": 12,
        "textAngle": 269,
        "outlineColor": "#000000",
        "__gm_id": "feature-2567",
        "__gm_shape": "polygon"
      },
      "geometry": {
        "type": "MultiPolygon",
        "coordinates": [
          [
            [
              [
                -113.99586654937465,
                46.866142794684045
              ],
              [
                -113.99586593858635,
                46.866094202598305
              ],
              [
                -113.99583152914988,
                46.86609449484655
              ],
              [
                -113.9958324125663,
                46.866143116367944
              ],
              [
                -113.99586654937465,
                46.866142794684045
              ]
            ]
          ]
        ]
      }
    },
    {
      "type": "Feature",
      "id": "feature-3099",
      "properties": {
        "fillColor": "#b0966a",
        "level": "1",
        "outlineColor": "#000000",
        "__gm_id": "feature-3099",
        "__gm_shape": "polygon"
      },
      "geometry": {
        "type": "MultiPolygon",
        "coordinates": [
          [
            [
              [
                -113.99583152914988,
                46.86609449484655
              ],
              [
                -113.99580334875286,
                46.86609473418867
              ],
              [
                -113.99580386122155,
                46.86612293949116
              ],
              [
                -113.99583204161925,
                46.866122700147805
              ],
              [
                -113.99583152914988,
                46.86609449484655
              ]
            ]
          ]
        ]
      }
    },
    {
      "type": "Feature",
      "id": "feature-3103",
      "properties": {
        "fillColor": "#b0966a",
        "level": "1",
        "outlineColor": "#000000",
        "__gm_id": "feature-3103",
        "__gm_shape": "polygon"
      },
      "geometry": {
        "type": "MultiPolygon",
        "coordinates": [
          [
            [
              [
                -113.99580334875286,
                46.86609473418867
              ],
              [
                -113.99576916212136,
                46.86609502896536
              ],
              [
                -113.99576916212105,
                46.866122939490744
              ],
              [
                -113.99580334875316,
                46.866122939490744
              ],
              [
                -113.99580334875286,
                46.86609473418867
              ]
            ]
          ]
        ]
      }
    },
    {
      "type": "Feature",
      "id": "feature-3107",
      "properties": {
        "fillColor": "#b0966a",
        "level": "1",
        "label": "",
        "textOffset": [
          0.6,
          0
        ],
        "outlineColor": "#000000",
        "textSize": 12,
        "__gm_id": "feature-3107",
        "__gm_shape": "polygon"
      },
      "geometry": {
        "type": "MultiPolygon",
        "coordinates": [
          [
            [
              [
                -113.99583204161925,
                46.866122700147805
              ],
              [
                -113.99576916212105,
                46.866122939490744
              ],
              [
                -113.99576977067342,
                46.866197674315835
              ],
              [
                -113.99589830538812,
                46.8661971850643
              ],
              [
                -113.99589802415323,
                46.86616264729406
              ],
              [
                -113.99586677368029,
                46.866162766244635
              ],
              [
                -113.99586661105457,
                46.866142794448905
              ],
              [
                -113.99583241100531,
                46.86614292462628
              ],
              [
                -113.99583204161925,
                46.866122700147805
              ]
            ]
          ]
        ]
      }
    },
    {
      "type": "Feature",
      "id": "feature-3111",
      "properties": {
        "level": "1",
        "label": "101",
        "fillColor": "#8f623f",
        "outlineColor": "#000000",
        "textSize": 16,
        "__gm_id": "feature-3111",
        "__gm_shape": "polygon",
        "labelPoint": [
          -113.996512139,
          46.866686181
        ]
      },
      "geometry": {
        "type": "MultiPolygon",
        "coordinates": [
          [
            [
              [
                -113.99659542814406,
                46.866643794368834
              ],
              [
                -113.99650349876234,
                46.866619798354265
              ],
              [
                -113.99648851494571,
                46.86664728362197
              ],
              [
                -113.99647227352851,
                46.86664309316348
              ],
              [
                -113.99642885048334,
                46.86672176356015
              ],
              [
                -113.99654822829649,
                46.866752564248664
              ],
              [
                -113.9965732176391,
                46.86670729059878
              ],
              [
                -113.99656139761737,
                46.86670453967568
              ],
              [
                -113.99659542814406,
                46.866643794368834
              ]
            ]
          ]
        ]
      }
    },
    {
      "type": "Feature",
      "id": "feature-3739",
      "properties": {
        "level": "1",
        "label": "104",
        "fillColor": "#8f623f",
        "outlineColor": "#000000",
        "textSize": 16,
        "__gm_id": "feature-3739",
        "__gm_shape": "polygon",
        "labelPoint": [
          -113.99637627,
          46.866662073
        ]
      },
      "geometry": {
        "type": "MultiPolygon",
        "coordinates": [
          [
            [
              [
                -113.99647227352851,
                46.86664309316348
              ],
              [
                -113.99632058173678,
                46.86660354655234
              ],
              [
                -113.99628026613989,
                46.866676587153876
              ],
              [
                -113.99632434084752,
                46.8666879588921
              ],
              [
                -113.99632104012413,
                46.8666939388751
              ],
              [
                -113.99632683338227,
                46.866695433596426
              ],
              [
                -113.99631966608355,
                46.866708418726915
              ],
              [
                -113.99636687789264,
                46.86672059986126
              ],
              [
                -113.99637395342121,
                46.86670778099497
              ],
              [
                -113.9963820413568,
                46.86670986776596
              ],
              [
                -113.99638543385068,
                46.86670372152008
              ],
              [
                -113.99643215531313,
                46.86671577613819
              ],
              [
                -113.99647227352851,
                46.86664309316348
              ]
            ]
          ]
        ]
      }
    },
    {
      "type": "Feature",
      "id": "feature-3745",
      "properties": {
        "level": "1",
        "label": "103",
        "fillColor": "#8f623f",
        "outlineColor": "#000000",
        "textSize": 16,
        "__gm_id": "feature-3745",
        "__gm_shape": "polygon",
        "labelPoint": [
          -113.996416989,
          46.866566721
        ]
      },
      "geometry": {
        "type": "MultiPolygon",
        "coordinates": [
          [
            [
              [
                -113.99639196883643,
                46.86651899881432
              ],
              [
                -113.99635159620668,
                46.866591061786416
              ],
              [
                -113.99644272611593,
                46.866614442901756
              ],
              [
                -113.99648238085395,
                46.866542195773235
              ],
              [
                -113.99639196883643,
                46.86651899881432
              ]
            ]
          ]
        ]
      }
    },
    {
      "type": "Feature",
      "id": "feature-3749",
      "properties": {
        "level": "1",
        "label": "102",
        "fillColor": "#8f623f",
        "outlineColor": "#000000",
        "textSize": 16,
        "__gm_id": "feature-3749",
        "__gm_shape": "polygon",
        "labelPoint": [
          -113.996543815,
          46.866594329
        ]
      },
      "geometry": {
        "type": "MultiPolygon",
        "coordinates": [
          [
            [
              [
                -113.99648238085395,
                46.866542195773235
              ],
              [
                -113.99644272611593,
                46.866614442901756
              ],
              [
                -113.99649860457488,
                46.86662877958136
              ],
              [
                -113.99650352979236,
                46.866619806315676
              ],
              [
                -113.9966074243535,
                46.86664646243259
              ],
              [
                -113.99664490456729,
                46.86657817712504
              ],
              [
                -113.99657634012273,
                46.86656058559749
              ],
              [
                -113.99657383541016,
                46.86656514894409
              ],
              [
                -113.99648238085395,
                46.866542195773235
              ]
            ]
          ]
        ]
      }
    },
    {
      "type": "Feature",
      "id": "feature-4578",
      "properties": {
        "level": "1",
        "label": "109",
        "fillColor": "#8f623f",
        "outlineColor": "#000000",
        "textSize": 16,
        "__gm_id": "feature-4578",
        "__gm_shape": "polygon",
        "labelPoint": [
          -113.996259916,
          46.866525967
        ]
      },
      "geometry": {
        "type": "MultiPolygon",
        "coordinates": [
          [
            [
              [
                -113.99630563510573,
                46.86649607321019
              ],
              [
                -113.99630897729783,
                46.86649001807427
              ],
              [
                -113.99624751626449,
                46.86647416042257
              ],
              [
                -113.99624417407051,
                46.866480215563485
              ],
              [
                -113.9962012638463,
                46.866469144233974
              ],
              [
                -113.9961609782212,
                46.86654213073632
              ],
              [
                -113.99631856794558,
                46.866582790622864
              ],
              [
                -113.99635885357021,
                46.86650980417631
              ],
              [
                -113.99630563510573,
                46.86649607321019
              ]
            ]
          ]
        ]
      }
    },
    {
      "type": "Feature",
      "id": "feature-4646",
      "properties": {
        "level": "1",
        "label": "105",
        "fillColor": "#8f623f",
        "outlineColor": "#000000",
        "textSize": 16,
        "__gm_id": "feature-4646",
        "__gm_shape": "polygon",
        "labelPoint": [
          -113.99618001,
          46.866608999
        ]
      },
      "geometry": {
        "type": "MultiPolygon",
        "coordinates": [
          [
            [
              [
                -113.99628026613989,
                46.866676587153876
              ],
              [
                -113.99632058173678,
                46.86660354655234
              ],
              [
                -113.9960797531635,
                46.866541410120114
              ],
              [
                -113.9960394375525,
                46.86661445083289
              ],
              [
                -113.99612970804611,
                46.86663774159391
              ],
              [
                -113.99612688467562,
                46.866642856753096
              ],
              [
                -113.99613467629918,
                46.866644867075195
              ],
              [
                -113.99612713050357,
                46.86665853794784
              ],
              [
                -113.99617486044767,
                46.866670852778306
              ],
              [
                -113.99618242953744,
                46.86665713970678
              ],
              [
                -113.9961905941575,
                46.86665924626559
              ],
              [
                -113.99619339424142,
                46.86665417329749
              ],
              [
                -113.99628026613989,
                46.866676587153876
              ]
            ]
          ]
        ]
      }
    },
    {
      "type": "Feature",
      "id": "feature-4650",
      "properties": {
        "level": "1",
        "label": "108",
        "fillColor": "#8f623f",
        "outlineColor": "#000000",
        "textSize": 16,
        "__gm_id": "feature-4650",
        "__gm_shape": "polygon",
        "labelPoint": [
          -113.995924804,
          46.866535567
        ]
      },
      "geometry": {
        "type": "MultiPolygon",
        "coordinates": [
          [
            [
              [
                -113.9960797531635,
                46.866541410120114
              ],
              [
                -113.99590360224329,
                46.8664968757769
              ],
              [
                -113.99579185298394,
                46.86649687577739
              ],
              [
                -113.9957799635811,
                46.866496976756004
              ],
              [
                -113.99578017738403,
                46.86654755888233
              ],
              [
                -113.99576985561703,
                46.8665662590771
              ],
              [
                -113.99582699240638,
                46.866581000994394
              ],
              [
                -113.99583447957545,
                46.86656743631434
              ],
              [
                -113.9958453482803,
                46.866570240559554
              ],
              [
                -113.99584818287637,
                46.86656510505537
              ],
              [
                -113.99597715588234,
                46.86659838148811
              ],
              [
                -113.99597438528546,
                46.86660340104288
              ],
              [
                -113.99599493888913,
                46.86660870409602
              ],
              [
                -113.99598750401013,
                46.866622174030034
              ],
              [
                -113.99602923207223,
                46.866632940319484
              ],
              [
                -113.9960394375525,
                46.86661445083289
              ],
              [
                -113.9960797531635,
                46.866541410120114
              ]
            ]
          ]
        ]
      }
    },
    {
      "type": "Feature",
      "id": "feature-4654",
      "properties": {
        "level": "1",
        "label": "107",
        "fillColor": "#8f623f",
        "outlineColor": "#000000",
        "textSize": 16,
        "__gm_id": "feature-4654",
        "__gm_shape": "polygon",
        "labelPoint": [
          -113.996103613,
          46.866485497
        ]
      },
      "geometry": {
        "type": "MultiPolygon",
        "coordinates": [
          [
            [
              [
                -113.9961609782212,
                46.86654213073632
              ],
              [
                -113.99620194579843,
                46.86646932018462
              ],
              [
                -113.99615935649143,
                46.866458331654115
              ],
              [
                -113.99616264864345,
                46.86645236717229
              ],
              [
                -113.996101392982,
                46.86643656250146
              ],
              [
                -113.99609810083055,
                46.86644252698506
              ],
              [
                -113.99604514685318,
                46.86642886424141
              ],
              [
                -113.99600527966905,
                46.86650109269292
              ],
              [
                -113.9961609782212,
                46.86654213073632
              ]
            ]
          ]
        ]
      }
    },
    {
      "type": "Feature",
      "id": "feature-4658",
      "properties": {
        "level": "1",
        "label": "T01",
        "fillColor": "#8f623f",
        "outlineColor": "#000000",
        "textSize": 16,
        "__gm_id": "feature-4658",
        "__gm_shape": "polygon",
        "labelPoint": [
          -113.99584431,
          46.866390262
        ]
      },
      "geometry": {
        "type": "MultiPolygon",
        "coordinates": [
          [
            [
              [
                -113.99578657159445,
                46.86642659322251
              ],
              [
                -113.99590324351982,
                46.86642628982367
              ],
              [
                -113.9959020381402,
                46.866353929780196
              ],
              [
                -113.99578537629414,
                46.866354838201005
              ],
              [
                -113.99578657159445,
                46.86642659322251
              ]
            ]
          ]
        ]
      }
    },
    {
      "type": "Feature",
      "id": "feature-4662",
      "properties": {
        "level": "1",
        "label": "T02",
        "fillColor": "#8f623f",
        "outlineColor": "#000000",
        "textSize": 16,
        "__gm_id": "feature-4662",
        "__gm_shape": "polygon",
        "labelPoint": [
          -113.995842987,
          46.8663186
        ]
      },
      "geometry": {
        "type": "MultiPolygon",
        "coordinates": [
          [
            [
              [
                -113.9959020381402,
                46.866353929780196
              ],
              [
                -113.99590049346514,
                46.86628236264377
              ],
              [
                -113.99578393675883,
                46.866283461491356
              ],
              [
                -113.99578537629414,
                46.866354838201005
              ],
              [
                -113.9959020381402,
                46.866353929780196
              ]
            ]
          ]
        ]
      }
    },
    {
      "type": "Feature",
      "id": "feature-4666",
      "properties": {
        "level": "1",
        "label": "T03",
        "fillColor": "#8f623f",
        "outlineColor": "#000000",
        "textSize": 16,
        "__gm_id": "feature-4666",
        "__gm_shape": "polygon",
        "labelPoint": [
          -113.995841565,
          46.866247958
        ]
      },
      "geometry": {
        "type": "MultiPolygon",
        "coordinates": [
          [
            [
              [
                -113.99590049346514,
                46.86628236264377
              ],
              [
                -113.99589850590797,
                46.86621247625561
              ],
              [
                -113.99578263654867,
                46.86621348256807
              ],
              [
                -113.9957839363132,
                46.86628344034242
              ],
              [
                -113.99590049346514,
                46.86628236264377
              ]
            ]
          ]
        ]
      }
    },
    {
      "type": "Feature",
      "id": "feature-4672",
      "properties": {
        "level": "1",
        "label": "109",
        "fillColor": "#8f623f",
        "outlineColor": "#000000",
        "textSize": 16,
        "__gm_id": "feature-4672",
        "__gm_shape": "polygon",
        "labelPoint": [
          -113.995983682,
          46.866221163
        ]
      },
      "geometry": {
        "type": "MultiPolygon",
        "coordinates": [
          [
            [
              [
                -113.99604116396246,
                46.866187853553164
              ],
              [
                -113.99592510605328,
                46.86618807825067
              ],
              [
                -113.9959273541439,
                46.86625447272707
              ],
              [
                -113.99604225758843,
                46.866254030655
              ],
              [
                -113.99604116396246,
                46.866187853553164
              ]
            ]
          ]
        ]
      }
    },
    {
      "type": "Feature",
      "id": "feature-4676",
      "properties": {
        "level": "1",
        "label": "T04",
        "fillColor": "#8f623f",
        "outlineColor": "#000000",
        "textSize": 16,
        "__gm_id": "feature-4676",
        "__gm_shape": "polygon",
        "labelPoint": [
          -113.996079846,
          46.866132522
        ]
      },
      "geometry": {
        "type": "MultiPolygon",
        "coordinates": [
          [
            [
              [
                -113.99613256786031,
                46.8661721093805
              ],
              [
                -113.99613104788918,
                46.86609193055225
              ],
              [
                -113.99602712401041,
                46.8660928132021
              ],
              [
                -113.9960285829945,
                46.86617311307208
              ],
              [
                -113.99613256786031,
                46.8661721093805
              ]
            ]
          ]
        ]
      }
    },
    {
      "type": "Feature",
      "id": "feature-4680",
      "properties": {
        "level": "1",
        "label": "T05",
        "fillColor": "#8f623f",
        "outlineColor": "#000000",
        "textSize": 16,
        "__gm_id": "feature-4680",
        "__gm_shape": "polygon",
        "labelPoint": [
          -113.995976391,
          46.866133378
        ]
      },
      "geometry": {
        "type": "MultiPolygon",
        "coordinates": [
          [
            [
              [
                -113.9960285829945,
                46.86617311307208
              ],
              [
                -113.99602712401041,
                46.8660928132021
              ],
              [
                -113.99592419994373,
                46.86609368736063
              ],
              [
                -113.99592565813175,
                46.86617394338532
              ],
              [
                -113.9960285829945,
                46.86617311307208
              ]
            ]
          ]
        ]
      }
    },
    {
      "type": "Feature",
      "id": "feature-32",
      "properties": {
        "fillColor": "#cccccc",
        "outlineColor": "#000000",
        "label": "Stairs",
        "textAngle": 292,
        "textSize": 14,
        "__gm_id": "feature-32",
        "__gm_shape": "polygon",
        "labelPoint": [
          -113.996353178,
          46.866553642
        ],
        "level": "1"
      },
      "geometry": {
        "type": "MultiPolygon",
        "coordinates": [
          [
            [
              [
                -113.99635517241944,
                46.86651647341074
              ],
              [
                -113.99631865112626,
                46.866582639919194
              ],
              [
                -113.99635130745372,
                46.866590811027244
              ],
              [
                -113.99638770575346,
                46.8665248673799
              ],
              [
                -113.99635517241944,
                46.86651647341074
              ]
            ]
          ]
        ]
      }
    },
    {
      "type": "Feature",
      "id": "feature-40",
      "properties": {
        "fillColor": "#cccccc",
        "outlineColor": "#000000",
        "label": "",
        "textAngle": 89,
        "textSize": 14,
        "__gm_id": "feature-40",
        "__gm_shape": "polygon",
        "level": "1"
      },
      "geometry": {
        "type": "MultiPolygon",
        "coordinates": [
          [
            [
              [
                -113.99570540517745,
                46.866128236803156
              ],
              [
                -113.99570669045384,
                46.86619897599101
              ],
              [
                -113.99574347996047,
                46.866198663526895
              ],
              [
                -113.99574220312165,
                46.8661283890047
              ],
              [
                -113.99570540517745,
                46.866128236803156
              ]
            ]
          ]
        ]
      }
    },
    {
      "type": "Feature",
      "id": "feature-44",
      "properties": {
        "fillColor": "#cccccc",
        "outlineColor": "#000000",
        "label": "Lifts",
        "textAngle": 290,
        "textSize": 14,
        "__gm_id": "feature-44",
        "__gm_shape": "polygon",
        "labelPoint": [
          -113.996002167,
          46.866470085
        ],
        "level": "1"
      },
      "geometry": {
        "type": "MultiPolygon",
        "coordinates": [
          [
            [
              [
                -113.99600501077724,
                46.86650171721323
              ],
              [
                -113.99603486693401,
                46.866447626018335
              ],
              [
                -113.9959993148057,
                46.86643845315686
              ],
              [
                -113.99596946730671,
                46.86649252868046
              ],
              [
                -113.99600501077724,
                46.86650171721323
              ]
            ]
          ]
        ]
      }
    },
    {
      "type": "Feature",
      "id": "feature-1711",
      "properties": {
        "fillColor": "#cccccc",
        "outlineColor": "#000000",
        "label": "Stairs",
        "textAngle": 89,
        "textSize": 12,
        "__gm_id": "feature-1711",
        "__gm_shape": "polygon",
        "labelPoint": [
          -113.995906111,
          46.866133527
        ],
        "level": "1"
      },
      "geometry": {
        "type": "MultiPolygon",
        "coordinates": [
          [
            [
              [
                -113.99592507741117,
                46.86616370195972
              ],
              [
                -113.99592437029804,
                46.86610306334066
              ],
              [
                -113.99588714446213,
                46.86610326625982
              ],
              [
                -113.9958878525726,
                46.86616399018237
              ],
              [
                -113.99592507741117,
                46.86616370195972
              ]
            ]
          ]
        ]
      }
    },
    {
      "type": "Feature",
      "id": "feature-1148",
      "properties": {
        "fillColor": "#b0966a",
        "outlineColor": "#000000",
        "label": "Lounge",
        "textSize": 10,
        "__gm_id": "feature-1148",
        "__gm_shape": "polygon",
        "labelPoint": [
          -113.995846987,
          46.866461583
        ],
        "level": "1"
      },
      "geometry": {
        "type": "MultiPolygon",
        "coordinates": [
          [
            [
              [
                -113.99590324351982,
                46.86642628982367
              ],
              [
                -113.99579037236124,
                46.86642628982423
              ],
              [
                -113.99579185298394,
                46.86649687577739
              ],
              [
                -113.99590360224329,
                46.8664968757769
              ],
              [
                -113.99590324351982,
                46.86642628982367
              ]
            ]
          ]
        ]
      }
    },
    {
      "type": "Feature",
      "id": "feature-2228",
      "properties": {
        "fillColor": "#b0966a",
        "outlineColor": "#000000",
        "outlineEnabled": true,
        "label": "Lobby",
        "textSize": 10,
        "textAngle": 286,
        "__gm_id": "feature-2228",
        "__gm_shape": "polygon",
        "labelPoint": [
          -113.995958841,
          46.866445283
        ],
        "level": "1"
      },
      "geometry": {
        "type": "MultiPolygon",
        "coordinates": [
          [
            [
              [
                -113.99603486693401,
                46.866447626018335
              ],
              [
                -113.99604514685181,
                46.866428864244746
              ],
              [
                -113.99604470787091,
                46.86640230081017
              ],
              [
                -113.9959028621065,
                46.86640339655821
              ],
              [
                -113.99590360224329,
                46.8664968757769
              ],
              [
                -113.99596946730671,
                46.86649252868046
              ],
              [
                -113.9959993148057,
                46.86643845315686
              ],
              [
                -113.99603486693401,
                46.866447626018335
              ]
            ]
          ]
        ]
      }
    },
    {
      "type": "Feature",
      "id": "feature-2236",
      "properties": {
        "fillColor": "#cccccc",
        "outlineColor": "#000000",
        "__gm_id": "feature-2236",
        "__gm_shape": "polygon",
        "level": "1",
        "label": "Future Development",
        "labelPoint": [
          -113.995487593,
          46.866146083
        ],
        "textSize": 16
      },
      "geometry": {
        "type": "MultiPolygon",
        "coordinates": [
          [
            [
              [
                -113.99570692861019,
                46.86623577932295
              ],
              [
                -113.9957048116668,
                46.866095571089296
              ],
              [
                -113.99570422004595,
                46.86605638709747
              ],
              [
                -113.99526825781166,
                46.86605638709747
              ],
              [
                -113.99526825781166,
                46.86623577932295
              ],
              [
                -113.99570692861019,
                46.86623577932295
              ]
            ]
          ]
        ]
      }
    },
    {
      "type": "Feature",
      "properties": {
        "__gm_id": "feature-269",
        "__gm_shape": "polygon",
        "fillColor": "#cccccc",
        "outlineColor": "#000000",
        "label": "Patio",
        "labelPoint": [
          -113.996574941,
          46.866547598
        ],
        "textAngle": 22,
        "textSize": 10,
        "level": "1"
      },
      "geometry": {
        "type": "MultiPolygon",
        "coordinates": [
          [
            [
              [
                -113.99663967522105,
                46.866655271276706
              ],
              [
                -113.9966074243535,
                46.86664646243259
              ],
              [
                -113.99664490456729,
                46.86657817712504
              ],
              [
                -113.99657634012273,
                46.86656058559749
              ],
              [
                -113.99657383541016,
                46.86656514894409
              ],
              [
                -113.99648238085395,
                46.866542195773235
              ],
              [
                -113.9964989873006,
                46.86651241838038
              ],
              [
                -113.99665857092651,
                46.86655336265702
              ],
              [
                -113.99667859959187,
                46.866586510546654
              ],
              [
                -113.99663967522105,
                46.866655271276706
              ]
            ]
          ]
        ]
      },
      "id": "feature-269"
    }
  ]
}