{
  "type": "FeatureCollection",
  "features": [
    {
      "type": "Feature",
      "id": "feature-3",
      "properties": {
        "fillColor": "#b0966a",
        "level": "2",
        "outlineColor": "#000000",
        "__gm_id": "feature-3",
        "__gm_shape": "polygon"
      },
      "geometry": {
        "type": "Polygon",
        "coordinates": [
          [
            [
              -113.99613252792629301612,
              46.86617338918384288181
            ],
            [
              -113.99613104788917301612,
              46.86609193055224788181
            ],
            [
              -113.99592419994373301612,
              46.86609368736063288181
            ],
            [
              -113.99592437029804301612,
              46.86610306334066288181
            ],
            [
              -113.99586610856974301612,
              46.86610355817268288181
            ],
            [
              -113.99586593858635301612,
              46.86609420259830788181
            ],
            [
              -113.99570481166680301612,
              46.86609557108929288181
            ],
            [
              -113.99570760299791301612,
              46.86624920061428288181
            ],
            [
              -113.99578734059453301612,
              46.86624852338511288181
            ],
            [
              -113.99579185298394301612,
              46.86649687577739288181
            ],
            [
              -113.99577996358109301612,
              46.86649697675600288181
            ],
            [
              -113.99578088594529301612,
              46.86654774169875288181
            ],
            [
              -113.99643215531313301612,
              46.86671577613819288181
            ],
            [
              -113.99642885048334301612,
              46.86672176356015288181
            ],
            [
              -113.99654822829648301612,
              46.86675256424866288181
            ],
            [
              -113.99657321763909301612,
              46.86670729059878288181
            ],
            [
              -113.99656105654218301612,
              46.86670415291004888181
            ],
            [
              -113.99659477331593301612,
              46.86664306755765288181
            ],
            [
              -113.99660683159975301612,
              46.86664617872410288181
            ],
            [
              -113.99664463180957301612,
              46.86657769526863288181
            ],
            [
              -113.99657791343581301612,
              46.86656048118925688181
            ],
            [
              -113.99657477611888301612,
              46.86656616513943288181
            ],
            [
              -113.99639196883643301612,
              46.86651899881431788181
            ],
            [
              -113.99638860198706301612,
              46.86652509861810288181
            ],
            [
              -113.99635517241944301612,
              46.86651647341074288181
            ],
            [
              -113.99635885357021301612,
              46.86650980417630688181
            ],
            [
              -113.99604514685318301612,
              46.86642886424141688181
            ],
            [
              -113.99604137894005301612,
              46.86617321683386288181
            ],
            [
              -113.99613252792629301612,
              46.86617338918384288181
            ]
          ]
        ]
      }
    },
    {
      "type": "Feature",
      "id": "feature-1677",
      "properties": {
        "label": "203",
        "level": "2",
        "fillColor": "#8f623f",
        "outlineColor": "#000000",
        "textSize": 16,
        "__gm_id": "feature-1677",
        "__gm_shape": "polygon"
      },
      "geometry": {
        "type": "MultiPolygon",
        "coordinates": [
          [
            [
              [
                -113.99648177207149301612,
                46.86654216905720788181
              ],
              [
                -113.99643349336728301612,
                46.86652971261139888181
              ],
              [
                -113.99644094523478301612,
                46.86651621188045288181
              ],
              [
                -113.99639852447093301612,
                46.86650526684147288181
              ],
              [
                -113.99638770575346301612,
                46.86652486737989788181
              ],
              [
                -113.99635130745372301612,
                46.86659081102724288181
              ],
              [
                -113.99644194537123301612,
                46.86661419659739288181
              ],
              [
                -113.99648177207149301612,
                46.86654216905720788181
              ]
            ]
          ]
        ]
      }
    },
    {
      "type": "Feature",
      "id": "feature-1679",
      "properties": {
        "label": "202",
        "textOffset": [
          0,
          0
        ],
        "level": "2",
        "fillColor": "#8f623f",
        "outlineColor": "#000000",
        "textSize": 16,
        "__gm_id": "feature-1679",
        "__gm_shape": "polygon"
      },
      "geometry": {
        "type": "MultiPolygon",
        "coordinates": [
          [
            [
              [
                -113.99667144911932301612,
                46.86656972467182288181
              ],
              [
                -113.99659771603835301612,
                46.86655070071632288181
              ],
              [
                -113.99659052199230301612,
                46.86656373433720888181
              ],
              [
                -113.99657791343597301612,
                46.86656048118942788181
              ],
              [
                -113.99657477611770301612,
                46.86656616514162288181
              ],
              [
                -113.99648177207149301612,
                46.86654216905720788181
              ],
              [
                -113.99644194537123301612,
                46.86661419659739288181
              ],
              [
                -113.99649945731711301612,
                46.86662903530598288181
              ],
              [
                -113.99650455957401301612,
                46.86661979143980288181
              ],
              [
                -113.99659477331593301612,
                46.86664306755765288181
              ],
              [
                -113.99660683159975301612,
                46.86664617872410288181
              ],
              [
                -113.99662564515454301612,
                46.86661209381191288181
              ],
              [
                -113.99664526841809301612,
                46.86661715682712288181
              ],
              [
                -113.99667144911932301612,
                46.86656972467182288181
              ]
            ]
          ]
        ]
      }
    },
    {
      "type": "Feature",
      "id": "feature-1660",
      "properties": {
        "label": "204",
        "level": "2",
        "fillColor": "#8f623f",
        "outlineColor": "#000000",
        "textSize": 16,
        "__gm_id": "feature-1660",
        "__gm_shape": "polygon"
      },
      "geometry": {
        "type": "MultiPolygon",
        "coordinates": [
          [
            [
              [
                -113.99647198089298301612,
                46.86664362339010688181
              ],
              [
                -113.99632085427785301612,
                46.86660463109015888181
              ],
              [
                -113.99628102870096301612,
                46.86667678390725288181
              ],
              [
                -113.99632382523383301612,
                46.86668782586304288181
              ],
              [
                -113.99632039729156301612,
                46.86669403633306288181
              ],
              [
                -113.99632741116362301612,
                46.86669584598525288181
              ],
              [
                -113.99632015526403301612,
                46.86670899163627288181
              ],
              [
                -113.99636770866671301612,
                46.86672126090468288181
              ],
              [
                -113.99637505400575301612,
                46.86670795321962288181
              ],
              [
                -113.99638168267784301612,
                46.86670966348612288181
              ],
              [
                -113.99638502118768301612,
                46.86670361504915288181
              ],
              [
                -113.99643215530767301612,
                46.86671577614805888181
              ],
              [
                -113.99647198089298301612,
                46.86664362339010688181
              ]
            ]
          ],
          [
            [
              [
                -113.99643007362133301612,
                46.86671954757814288181
              ],
              [
                -113.99642885048263301612,
                46.86672176356021288181
              ],
              [
                -113.99642885048323301612,
                46.86672176356033888181
              ],
              [
                -113.99643007362133301612,
                46.86671954757814288181
              ]
            ]
          ]
        ]
      }
    },
    {
      "type": "Feature",
      "id": "feature-1662",
      "properties": {
        "label": "201",
        "level": "2",
        "fillColor": "#8f623f",
        "outlineColor": "#000000",
        "textSize": 16,
        "__gm_id": "feature-1662",
        "__gm_shape": "polygon"
      },
      "geometry": {
        "type": "MultiPolygon",
        "coordinates": [
          [
            [
              [
                -113.99659477332840301612,
                46.86664306756114288181
              ],
              [
                -113.99650455957401301612,
                46.86661979143980288181
              ],
              [
                -113.99649945731711301612,
                46.86662903530598288181
              ],
              [
                -113.99648898383340301612,
                46.86664801033248288181
              ],
              [
                -113.99647198089298301612,
                46.86664362339010688181
              ],
              [
                -113.99643215530767301612,
                46.86671577614805888181
              ],
              [
                -113.99643215530867301612,
                46.86671577614831288181
              ],
              [
                -113.99643007362133301612,
                46.86671954757814288181
              ],
              [
                -113.99642885048323301612,
                46.86672176356033888181
              ],
              [
                -113.99644790550949301612,
                46.86672582177506288181
              ],
              [
                -113.99646160550949301612,
                46.86672962177506288181
              ],
              [
                -113.99649502232096301612,
                46.86673883657883288181
              ],
              [
                -113.99648768125506301612,
                46.86675213651307288181
              ],
              [
                -113.99656044985727301612,
                46.86677091155150288181
              ],
              [
                -113.99658875397780301612,
                46.86671963249606288181
              ],
              [
                -113.99656919133604301612,
                46.86671458513174888181
              ],
              [
                -113.99657321764278301612,
                46.86670729059989288181
              ],
              [
                -113.99656105654363301612,
                46.86670415290933888181
              ],
              [
                -113.99659477332840301612,
                46.86664306756114288181
              ]
            ]
          ]
        ]
      }
    },
    {
      "type": "Feature",
      "id": "feature-37",
      "properties": {
        "label": "207",
        "level": "2",
        "fillColor": "#8f623f",
        "outlineColor": "#000000",
        "textSize": 16,
        "__gm_id": "feature-37",
        "__gm_shape": "polygon"
      },
      "geometry": {
        "type": "Polygon",
        "coordinates": [
          [
            [
              -113.99632085427785301612,
              46.86660463109015888181
            ],
            [
              -113.99607919525309301612,
              46.86654162048424288181
            ],
            [
              -113.99603905080117301612,
              46.86661435100316788181
            ],
            [
              -113.99613105440082301612,
              46.86663808895713288181
            ],
            [
              -113.99612844404192301612,
              46.86664281819208288181
            ],
            [
              -113.99613529370401301612,
              46.86664458548080288181
            ],
            [
              -113.99612748248157301612,
              46.86665873721796288181
            ],
            [
              -113.99617557236086301612,
              46.86667114492872288181
            ],
            [
              -113.99618317431633301612,
              46.86665737232701288181
            ],
            [
              -113.99618972064732301612,
              46.86665906135144288181
            ],
            [
              -113.99619254028629301612,
              46.86665395295611688181
            ],
            [
              -113.99628102870096301612,
              46.86667678390725288181
            ],
            [
              -113.99632085427785301612,
              46.86660463109015888181
            ]
          ]
        ]
      }
    },
    {
      "type": "Feature",
      "id": "feature-43",
      "properties": {
        "label": "205",
        "level": "2",
        "fillColor": "#8f623f",
        "outlineColor": "#000000",
        "textSize": 16,
        "__gm_id": "feature-43",
        "__gm_shape": "polygon"
      },
      "geometry": {
        "type": "Polygon",
        "coordinates": [
          [
            [
              -113.99635885357021301612,
              46.86650980417630688181
            ],
            [
              -113.99630634247444301612,
              46.86649625571570288181
            ],
            [
              -113.99630962106656301612,
              46.86649031579705288181
            ],
            [
              -113.99629897480202301612,
              46.86648756894445288181
            ],
            [
              -113.99630622591174301612,
              46.86647443189940888181
            ],
            [
              -113.99626324524097301612,
              46.86646334240950288181
            ],
            [
              -113.99625613865594301612,
              46.86647621761847288181
            ],
            [
              -113.99624761329150301612,
              46.86647401797933288181
            ],
            [
              -113.99624419018440301612,
              46.86648021971652288181
            ],
            [
              -113.99620184683781301612,
              46.86646929464894288181
            ],
            [
              -113.99616164439325301612,
              46.86654213044679288181
            ],
            [
              -113.99631865112626301612,
              46.86658263991919288181
            ],
            [
              -113.99635517241944301612,
              46.86651647341074288181
            ],
            [
              -113.99635885357021301612,
              46.86650980417630688181
            ]
          ]
        ]
      }
    },
    {
      "type": "Feature",
      "id": "feature-49",
      "properties": {
        "label": "206",
        "level": "2",
        "fillColor": "#8f623f",
        "outlineColor": "#000000",
        "textSize": 16,
        "__gm_id": "feature-49",
        "__gm_shape": "polygon"
      },
      "geometry": {
        "type": "Polygon",
        "coordinates": [
          [
            [
              -113.99620184683781301612,
              46.86646929464894288181
            ],
            [
              -113.99615979269789301612,
              46.86645844420002288181
            ],
            [
              -113.99616327676181301612,
              46.86645213202550288181
            ],
            [
              -113.99615285940286301612,
              46.86644944422665288181
            ],
            [
              -113.99615976630697301612,
              46.86643693079611288181
            ],
            [
              -113.99611834398154301612,
              46.86642624335354788181
            ],
            [
              -113.99611140504216301612,
              46.86643881482564288181
            ],
            [
              -113.99610120011775301612,
              46.86643618183643788181
            ],
            [
              -113.99609774808911301612,
              46.86644243597320288181
            ],
            [
              -113.99604521321953301612,
              46.86642888136461288181
            ],
            [
              -113.99600501077724301612,
              46.86650171721322888181
            ],
            [
              -113.99616164439325301612,
              46.86654213044679288181
            ],
            [
              -113.99620184683781301612,
              46.86646929464894288181
            ]
          ]
        ]
      }
    },
    {
      "type": "Feature",
      "id": "feature-561",
      "properties": {
        "label": "208",
        "textOffset": [
          0,
          0.5
        ],
        "level": "2",
        "fillColor": "#8f623f",
        "outlineColor": "#000000",
        "textSize": 16,
        "__gm_id": "feature-561",
        "__gm_shape": "polygon"
      },
      "geometry": {
        "type": "Polygon",
        "coordinates": [
          [
            [
              -113.99607919525309301612,
              46.86654162048424288181
            ],
            [
              -113.99590274748549301612,
              46.86649614377646288181
            ],
            [
              -113.99577970823277301612,
              46.86649697992104288181
            ],
            [
              -113.99578051956905301612,
              46.86652757712935288181
            ],
            [
              -113.99576258871225301612,
              46.86652779938413288181
            ],
            [
              -113.99576374747345301612,
              46.86656423253677788181
            ],
            [
              -113.99582647620318301612,
              46.86658041726525788181
            ],
            [
              -113.99583325364250301612,
              46.86656813844044288181
            ],
            [
              -113.99584396338216301612,
              46.86657090167571788181
            ],
            [
              -113.99584729007623301612,
              46.86656487463540288181
            ],
            [
              -113.99597607514150301612,
              46.86659810264709288181
            ],
            [
              -113.99597320073913301612,
              46.86660331025774788181
            ],
            [
              -113.99599305997106301612,
              46.86660843416274288181
            ],
            [
              -113.99598575776041301612,
              46.86662166371744288181
            ],
            [
              -113.99602887415377301612,
              46.86663278822684288181
            ],
            [
              -113.99603905080117301612,
              46.86661435100316788181
            ],
            [
              -113.99607919525309301612,
              46.86654162048424288181
            ]
          ]
        ]
      }
    },
    {
      "type": "Feature",
      "id": "feature-1695",
      "properties": {
        "label": "210",
        "level": "2",
        "fillColor": "#8f623f",
        "outlineColor": "#000000",
        "textSize": 16,
        "__gm_id": "feature-1695",
        "__gm_shape": "polygon"
      },
      "geometry": {
        "type": "MultiPolygon",
        "coordinates": [
          [
            [
              [
                -113.99604514685318301612,
                46.86642886424141688181
              ],
              [
                -113.99604453166857301612,
                46.86638712490648288181
              ],
              [
                -113.99606526415646301612,
                46.86638698206906288181
              ],
              [
                -113.99606495310471301612,
                46.86636587752238688181
              ],
              [
                -113.99604422061438301612,
                46.86636602036032288181
              ],
              [
                -113.99604410662056301612,
                46.86635828598582888181
              ],
              [
                -113.99592878430890301612,
                46.86635908050317688181
              ],
              [
                -113.99592982734079301612,
                46.86642984910844288181
              ],
              [
                -113.99604514685318301612,
                46.86642886424141688181
              ]
            ]
          ]
        ]
      }
    },
    {
      "type": "Feature",
      "id": "feature-1705",
      "properties": {
        "label": "211",
        "level": "2",
        "fillColor": "#8f623f",
        "outlineColor": "#000000",
        "textSize": 16,
        "__gm_id": "feature-1705",
        "__gm_shape": "polygon"
      },
      "geometry": {
        "type": "MultiPolygon",
        "coordinates": [
          [
            [
              [
                -113.99592878430890301612,
                46.86635908050317688181
              ],
              [
                -113.99604410662056301612,
                46.86635828598582888181
              ],
              [
                -113.99604391647735301612,
                46.86634538497981288181
              ],
              [
                -113.99606425100636301612,
                46.86634524488406288181
              ],
              [
                -113.99606392152729301612,
                46.86632289010112288181
              ],
              [
                -113.99604358699361301612,
                46.86632303019564788181
              ],
              [
                -113.99604301677806301612,
                46.86628434129253288181
              ],
              [
                -113.99592657938705301612,
                46.86628514348609888181
              ],
              [
                -113.99592878430890301612,
                46.86635908050317688181
              ]
            ]
          ]
        ]
      }
    },
    {
      "type": "Feature",
      "id": "feature-1711",
      "properties": {
        "label": "212",
        "level": "2",
        "fillColor": "#8f623f",
        "outlineColor": "#000000",
        "textSize": 16,
        "__gm_id": "feature-1711",
        "__gm_shape": "polygon"
      },
      "geometry": {
        "type": "MultiPolygon",
        "coordinates": [
          [
            [
              [
                -113.99604301677806301612,
                46.86628434129253288181
              ],
              [
                -113.99604252518115301612,
                46.86625098768914288181
              ],
              [
                -113.99605270433455301612,
                46.86625091755823288181
              ],
              [
                -113.99605259768420301612,
                46.86624368148369888181
              ],
              [
                -113.99606651098492301612,
                46.86624358562696288181
              ],
              [
                -113.99606604271968301612,
                46.86621181427000288181
              ],
              [
                -113.99605166426555301612,
                46.86621191333191288181
              ],
              [
                -113.99605155832552301612,
                46.86620472538453788181
              ],
              [
                -113.99604184432239301612,
                46.86620479231001788181
              ],
              [
                -113.99604137894400301612,
                46.86617321683457288181
              ],
              [
                -113.99592427949585301612,
                46.86617402360088288181
              ],
              [
                -113.99592591731739301612,
                46.86628514804798288181
              ],
              [
                -113.99604301677806301612,
                46.86628434129253288181
              ]
            ]
          ]
        ]
      }
    },
    {
      "type": "Feature",
      "id": "feature-1719",
      "properties": {
        "label": "T04",
        "level": "2",
        "fillColor": "#8f623f",
        "outlineColor": "#000000",
        "textSize": 16,
        "__gm_id": "feature-1719",
        "__gm_shape": "polygon"
      },
      "geometry": {
        "type": "MultiPolygon",
        "coordinates": [
          [
            [
              [
                -113.99613252792629301612,
                46.86617338918384288181
              ],
              [
                -113.99613104788917301612,
                46.86609193055224788181
              ],
              [
                -113.99612483947589301612,
                46.86609198328176288181
              ],
              [
                -113.99612459039747301612,
                46.86607827443475888181
              ],
              [
                -113.99609542694915301612,
                46.86607852212694288181
              ],
              [
                -113.99609567602757301612,
                46.86609223097389288181
              ],
              [
                -113.99602801571685301612,
                46.86609280562857288181
              ],
              [
                -113.99602947825683301612,
                46.86617330126350288181
              ],
              [
                -113.99613252792629301612,
                46.86617338918384288181
              ]
            ]
          ]
        ]
      }
    },
    {
      "type": "Feature",
      "id": "feature-1725",
      "properties": {
        "label": "T05",
        "level": "2",
        "fillColor": "#8f623f",
        "outlineColor": "#000000",
        "textSize": 16,
        "__gm_id": "feature-1725",
        "__gm_shape": "polygon"
      },
      "geometry": {
        "type": "MultiPolygon",
        "coordinates": [
          [
            [
              [
                -113.99602947825683301612,
                46.86617330126350288181
              ],
              [
                -113.99602801571685301612,
                46.86609280562857288181
              ],
              [
                -113.99596099508828301612,
                46.86609337485032288181
              ],
              [
                -113.99596073229283301612,
                46.86607891101204288181
              ],
              [
                -113.99592989803290301612,
                46.86607917289410688181
              ],
              [
                -113.99593016082868301612,
                46.86609363673327288181
              ],
              [
                -113.99592419994417301612,
                46.86609368736023688181
              ],
              [
                -113.99592427949585301612,
                46.86617402360088288181
              ],
              [
                -113.99602947825683301612,
                46.86617330126350288181
              ]
            ]
          ]
        ]
      }
    },
    {
      "type": "Feature",
      "id": "feature-17",
      "properties": {
        "label": "213",
        "level": "2",
        "fillColor": "#8f623f",
        "outlineColor": "#000000",
        "textSize": 16,
        "__gm_id": "feature-17",
        "__gm_shape": "polygon"
      },
      "geometry": {
        "type": "MultiPolygon",
        "coordinates": [
          [
            [
              [
                -113.99570540183680301612,
                46.86612805298139888181
              ],
              [
                -113.99574184348154301612,
                46.86612838426586688181
              ],
              [
                -113.99574312481579301612,
                46.86619890658613788181
              ],
              [
                -113.99586560444611301612,
                46.86619786634017288181
              ],
              [
                -113.99586517949997301612,
                46.86617447807720288181
              ],
              [
                -113.99588936757014301612,
                46.86617427264244288181
              ],
              [
                -113.99588790936922301612,
                46.86609401599463688181
              ],
              [
                -113.99583473616083301612,
                46.86609446760798288181
              ],
              [
                -113.99583446362868301612,
                46.86607946794012788181
              ],
              [
                -113.99578974184770301612,
                46.86607984777413288181
              ],
              [
                -113.99579001438029301612,
                46.86609484744127788181
              ],
              [
                -113.99570481166680301612,
                46.86609557108929288181
              ],
              [
                -113.99570540183680301612,
                46.86612805298139888181
              ]
            ]
          ]
        ]
      }
    },
    {
      "type": "Feature",
      "id": "feature-52",
      "properties": {
        "label": "T03",
        "level": "2",
        "fillColor": "#8f623f",
        "outlineColor": "#000000",
        "textSize": 16,
        "__gm_id": "feature-52",
        "__gm_shape": "polygon"
      },
      "geometry": {
        "type": "MultiPolygon",
        "coordinates": [
          [
            [
              [
                -113.99590014187369301612,
                46.86628267820495688181
              ],
              [
                -113.99589908638211301612,
                46.86621290143142788181
              ],
              [
                -113.99578342227629301612,
                46.86621371928982288181
              ],
              [
                -113.99578349679184301612,
                46.86621864535621288181
              ],
              [
                -113.99576349509111301612,
                46.86621878678861288181
              ],
              [
                -113.99576382217865301612,
                46.86624040984100288181
              ],
              [
                -113.99578342271605301612,
                46.86624027124526288181
              ],
              [
                -113.99578408936527301612,
                46.86628434201020688181
              ],
              [
                -113.99590014187369301612,
                46.86628267820495688181
              ]
            ]
          ]
        ]
      }
    },
    {
      "type": "Feature",
      "id": "feature-58",
      "properties": {
        "label": "T02",
        "level": "2",
        "fillColor": "#8f623f",
        "outlineColor": "#000000",
        "textSize": 16,
        "__gm_id": "feature-58",
        "__gm_shape": "polygon"
      },
      "geometry": {
        "type": "MultiPolygon",
        "coordinates": [
          [
            [
              [
                -113.99578408936527301612,
                46.86628434201020688181
              ],
              [
                -113.99578490642229301612,
                46.86632918513672288181
              ],
              [
                -113.99576558510431301612,
                46.86632934147531288181
              ],
              [
                -113.99576596867374301612,
                46.86635150034709688181
              ],
              [
                -113.99578466612644301612,
                46.86635134905612288181
              ],
              [
                -113.99578474150695301612,
                46.86635570379602288181
              ],
              [
                -113.99590235237982301612,
                46.86635475213870788181
              ],
              [
                -113.99590014187369301612,
                46.86628267820495688181
              ],
              [
                -113.99578408936527301612,
                46.86628434201020688181
              ]
            ]
          ]
        ]
      }
    },
    {
      "type": "Feature",
      "id": "feature-62",
      "properties": {
        "label": "T01",
        "level": "2",
        "fillColor": "#8f623f",
        "outlineColor": "#000000",
        "textSize": 16,
        "__gm_id": "feature-62",
        "__gm_shape": "polygon"
      },
      "geometry": {
        "type": "MultiPolygon",
        "coordinates": [
          [
            [
              [
                -113.99590230839873301612,
                46.86642590315674288181
              ],
              [
                -113.99590235237982301612,
                46.86635475213870788181
              ],
              [
                -113.99578474150695301612,
                46.86635570379602288181
              ],
              [
                -113.99578480926319301612,
                46.86635961802921288181
              ],
              [
                -113.99576598809885301612,
                46.86635977032426888181
              ],
              [
                -113.99576636641791301612,
                46.86638162537829888181
              ],
              [
                -113.99578543279937301612,
                46.86638147109980288181
              ],
              [
                -113.99578570760694301612,
                46.86642613066888788181
              ],
              [
                -113.99590230839873301612,
                46.86642590315674288181
              ]
            ]
          ]
        ]
      }
    },
    {
      "type": "Feature",
      "id": "feature-942",
      "properties": {
        "label": "209",
        "level": "2",
        "fillColor": "#8f623f",
        "outlineColor": "#000000",
        "textSize": 16,
        "__gm_id": "feature-942",
        "__gm_shape": "polygon"
      },
      "geometry": {
        "type": "MultiPolygon",
        "coordinates": [
          [
            [
              [
                -113.99590274748549301612,
                46.86649614377646288181
              ],
              [
                -113.99590230839873301612,
                46.86642590315674288181
              ],
              [
                -113.99578570760694301612,
                46.86642613066888788181
              ],
              [
                -113.99578574618673301612,
                46.86643537319452288181
              ],
              [
                -113.99576655041693301612,
                46.86643541064868288181
              ],
              [
                -113.99576664399417301612,
                46.86645782919416288181
              ],
              [
                -113.99578630336281301612,
                46.86645779083514288181
              ],
              [
                -113.99578646655229301612,
                46.86649688628685688181
              ],
              [
                -113.99590274748549301612,
                46.86649614377646288181
              ]
            ]
          ]
        ]
      }
    },
    {
      "type": "Feature",
      "id": "feature-32",
      "properties": {
        "fillColor": "#cccccc",
        "outlineColor": "#000000",
        "label": "Stairs",
        "textAngle": 292,
        "textSize": 14,
        "__gm_id": "feature-32",
        "__gm_shape": "polygon"
      },
      "geometry": {
        "type": "MultiPolygon",
        "coordinates": [
          [
            [
              [
                -113.99635517241944301612,
                46.86651647341074288181
              ],
              [
                -113.99631865112626301612,
                46.86658263991919288181
              ],
              [
                -113.99635130745372301612,
                46.86659081102724288181
              ],
              [
                -113.99638770575346301612,
                46.86652486737989788181
              ],
              [
                -113.99635517241944301612,
                46.86651647341074288181
              ]
            ]
          ]
        ]
      }
    },
    {
      "type": "Feature",
      "id": "feature-40",
      "properties": {
        "fillColor": "#cccccc",
        "outlineColor": "#000000",
        "label": "Lifts",
        "textAngle": 89,
        "textSize": 14,
        "__gm_id": "feature-40",
        "__gm_shape": "polygon"
      },
      "geometry": {
        "type": "MultiPolygon",
        "coordinates": [
          [
            [
              [
                -113.99570540517745301612,
                46.86612823680315288181
              ],
              [
                -113.99570669045384301612,
                46.86619897599101288181
              ],
              [
                -113.99574347996047301612,
                46.86619866352689288181
              ],
              [
                -113.99574220312165301612,
                46.86612838900470288181
              ],
              [
                -113.99570540517745301612,
                46.86612823680315288181
              ]
            ]
          ]
        ]
      }
    },
    {
      "type": "Feature",
      "id": "feature-44",
      "properties": {
        "fillColor": "#cccccc",
        "outlineColor": "#000000",
        "label": "Lifts",
        "textAngle": 290,
        "textSize": 14,
        "__gm_id": "feature-44",
        "__gm_shape": "polygon"
      },
      "geometry": {
        "type": "MultiPolygon",
        "coordinates": [
          [
            [
              [
                -113.99600501077724301612,
                46.86650171721322888181
              ],
              [
                -113.99603486693401301612,
                46.86644762601833288181
              ],
              [
                -113.99599931480570301612,
                46.86643845315686288181
              ],
              [
                -113.99596946730671301612,
                46.86649252868045688181
              ],
              [
                -113.99600501077724301612,
                46.86650171721322888181
              ]
            ]
          ]
        ]
      }
    },
    {
      "type": "Feature",
      "id": "feature-1726",
      "properties": {
        "fillColor": "#cccccc",
        "outlineColor": "#000000",
        "label": "Stairs",
        "textAngle": 89,
        "textSize": 14,
        "__gm_id": "feature-1726",
        "__gm_shape": "polygon"
      },
      "geometry": {
        "type": "MultiPolygon",
        "coordinates": [
          [
            [
              [
                -113.99592426937026301612,
                46.86616379763629288181
              ],
              [
                -113.99592437029804301612,
                46.86610306334066288181
              ],
              [
                -113.99588806726260301612,
                46.86610270612289288181
              ],
              [
                -113.99588918347233301612,
                46.86616414021762288181
              ],
              [
                -113.99592426937026301612,
                46.86616379763629288181
              ]
            ]
          ]
        ]
      }
    }
  ]
}