{
  "type": "FeatureCollection",
  "features": [
    {
      "type": "Feature",
      "properties": {
        "__gm_id": "feature-3",
        "__gm_shape": "polygon",
        "fillColor": "#b0966a",
        "level": "3",
        "outlineColor": "#000000"
      },
      "geometry": {
        "type": "MultiPolygon",
        "coordinates": [
          [
            [
              [
                -113.99613252792629301612,
                46.86617338918384288181
              ],
              [
                -113.99613104788917301612,
                46.86609193055224788181
              ],
              [
                -113.99592419994373301612,
                46.86609368736063288181
              ],
              [
                -113.99592437029804301612,
                46.86610306334066288181
              ],
              [
                -113.99586610856974301612,
                46.86610355817268288181
              ],
              [
                -113.99586593858635301612,
                46.86609420259830788181
              ],
              [
                -113.99570481166680301612,
                46.86609557108929288181
              ],
              [
                -113.99570760299791301612,
                46.86624920061428288181
              ],
              [
                -113.99578734059453301612,
                46.86624852338511288181
              ],
              [
                -113.99579185298394301612,
                46.86649687577739288181
              ],
              [
                -113.99577996358109301612,
                46.86649697675600288181
              ],
              [
                -113.99578088594529301612,
                46.86654774169875288181
              ],
              [
                -113.99643215531313301612,
                46.86671577613819288181
              ],
              [
                -113.99642885048334301612,
                46.86672176356015288181
              ],
              [
                -113.99654822829648301612,
                46.86675256424866288181
              ],
              [
                -113.99657321763909301612,
                46.86670729059878288181
              ],
              [
                -113.99656105654218301612,
                46.86670415291004888181
              ],
              [
                -113.99659477331593301612,
                46.86664306755765288181
              ],
              [
                -113.99660683159975301612,
                46.86664617872410288181
              ],
              [
                -113.99664463180957301612,
                46.86657769526863288181
              ],
              [
                -113.99657791343581301612,
                46.86656048118925688181
              ],
              [
                -113.99657477611888301612,
                46.86656616513943288181
              ],
              [
                -113.99639196883643301612,
                46.86651899881431788181
              ],
              [
                -113.99638860198706301612,
                46.86652509861810288181
              ],
              [
                -113.99635517241944301612,
                46.86651647341074288181
              ],
              [
                -113.99635885357021301612,
                46.86650980417630688181
              ],
              [
                -113.99604514685318301612,
                46.86642886424141688181
              ],
              [
                -113.99604137894005301612,
                46.86617321683386288181
              ],
              [
                -113.99613252792629301612,
                46.86617338918384288181
              ]
            ]
          ]
        ]
      },
      "id": "feature-3"
    },
    {
      "type": "Feature",
      "properties": {
        "__gm_id": "feature-23",
        "__gm_shape": "polygon",
        "label": "302",
        "textOffset": [
          0,
          0
        ],
        "level": "3",
        "fillColor": "#8f623f",
        "outlineColor": "#000000",
        "textSize": 16
      },
      "geometry": {
        "type": "MultiPolygon",
        "coordinates": [
          [
            [
              [
                -113.99660683159975301612,
                46.86664617872410288181
              ],
              [
                -113.99662564515454301612,
                46.86661209381191288181
              ],
              [
                -113.99664526841809301612,
                46.86661715682712288181
              ],
              [
                -113.99667144911932301612,
                46.86656972467182288181
              ],
              [
                -113.99659771603835301612,
                46.86655070071632288181
              ],
              [
                -113.99659052199230301612,
                46.86656373433720888181
              ],
              [
                -113.99657791343597301612,
                46.86656048118942788181
              ],
              [
                -113.99657477611770301612,
                46.86656616514162288181
              ],
              [
                -113.99643349336728301612,
                46.86652971261139888181
              ],
              [
                -113.99644094523478301612,
                46.86651621188045288181
              ],
              [
                -113.99639852447093301612,
                46.86650526684147288181
              ],
              [
                -113.99638770575346301612,
                46.86652486737989788181
              ],
              [
                -113.99635130745372301612,
                46.86659081102724288181
              ],
              [
                -113.99649945731711301612,
                46.86662903530598288181
              ],
              [
                -113.99650455957401301612,
                46.86661979143980288181
              ],
              [
                -113.99659477331593301612,
                46.86664306755765288181
              ],
              [
                -113.99660683159975301612,
                46.86664617872410288181
              ]
            ]
          ]
        ]
      },
      "id": "feature-23"
    },
    {
      "type": "Feature",
      "properties": {
        "__gm_id": "feature-31",
        "__gm_shape": "polygon",
        "label": "301",
        "textOffset": [
          0,
          0.3
        ],
        "level": "3",
        "fillColor": "#8f623f",
        "outlineColor": "#000000",
        "textSize": 16
      },
      "geometry": {
        "type": "MultiPolygon",
        "coordinates": [
          [
            [
              [
                -113.99650455957401301612,
                46.86661979143980288181
              ],
              [
                -113.99649945731711301612,
                46.86662903530598288181
              ],
              [
                -113.99648898383340301612,
                46.86664801033248288181
              ],
              [
                -113.99632085427785301612,
                46.86660463109015888181
              ],
              [
                -113.99628102870096301612,
                46.86667678390725288181
              ],
              [
                -113.99632382523383301612,
                46.86668782586304288181
              ],
              [
                -113.99632039729156301612,
                46.86669403633306288181
              ],
              [
                -113.99632741116362301612,
                46.86669584598525288181
              ],
              [
                -113.99632015526403301612,
                46.86670899163627288181
              ],
              [
                -113.99636770866671301612,
                46.86672126090468288181
              ],
              [
                -113.99637505400575301612,
                46.86670795321962288181
              ],
              [
                -113.99638168267784301612,
                46.86670966348612288181
              ],
              [
                -113.99638502118768301612,
                46.86670361504915288181
              ],
              [
                -113.99643215530867301612,
                46.86671577614831288181
              ],
              [
                -113.99642885048263301612,
                46.86672176356021288181
              ],
              [
                -113.99649502232096301612,
                46.86673883657883288181
              ],
              [
                -113.99648768125506301612,
                46.86675213651307288181
              ],
              [
                -113.99656044985727301612,
                46.86677091155150288181
              ],
              [
                -113.99658875397780301612,
                46.86671963249606288181
              ],
              [
                -113.99656919133604301612,
                46.86671458513174888181
              ],
              [
                -113.99657321764278301612,
                46.86670729059989288181
              ],
              [
                -113.99656105654363301612,
                46.86670415290933888181
              ],
              [
                -113.99659477332840301612,
                46.86664306756114288181
              ],
              [
                -113.99650455957401301612,
                46.86661979143980288181
              ]
            ]
          ]
        ]
      },
      "id": "feature-31"
    },
    {
      "type": "Feature",
      "properties": {
        "__gm_id": "feature-37",
        "__gm_shape": "polygon",
        "label": "304",
        "level": "3",
        "fillColor": "#8f623f",
        "outlineColor": "#000000",
        "textSize": 16
      },
      "geometry": {
        "type": "MultiPolygon",
        "coordinates": [
          [
            [
              [
                -113.99632085427785301612,
                46.86660463109015888181
              ],
              [
                -113.99607919525309301612,
                46.86654162048424288181
              ],
              [
                -113.99603905080117301612,
                46.86661435100316788181
              ],
              [
                -113.99613105440082301612,
                46.86663808895713288181
              ],
              [
                -113.99612844404192301612,
                46.86664281819208288181
              ],
              [
                -113.99613529370401301612,
                46.86664458548080288181
              ],
              [
                -113.99612748248157301612,
                46.86665873721796288181
              ],
              [
                -113.99617557236086301612,
                46.86667114492872288181
              ],
              [
                -113.99618317431633301612,
                46.86665737232701288181
              ],
              [
                -113.99618972064732301612,
                46.86665906135144288181
              ],
              [
                -113.99619254028629301612,
                46.86665395295611688181
              ],
              [
                -113.99628102870096301612,
                46.86667678390725288181
              ],
              [
                -113.99632085427785301612,
                46.86660463109015888181
              ]
            ]
          ]
        ]
      },
      "id": "feature-37"
    },
    {
      "type": "Feature",
      "properties": {
        "__gm_id": "feature-43",
        "__gm_shape": "polygon",
        "label": "303",
        "level": "3",
        "fillColor": "#8f623f",
        "outlineColor": "#000000",
        "textSize": 16
      },
      "geometry": {
        "type": "MultiPolygon",
        "coordinates": [
          [
            [
              [
                -113.99635885357021301612,
                46.86650980417630688181
              ],
              [
                -113.99630634247444301612,
                46.86649625571570288181
              ],
              [
                -113.99630962106656301612,
                46.86649031579705288181
              ],
              [
                -113.99629897480202301612,
                46.86648756894445288181
              ],
              [
                -113.99630622591174301612,
                46.86647443189940888181
              ],
              [
                -113.99626324524097301612,
                46.86646334240950288181
              ],
              [
                -113.99625613865594301612,
                46.86647621761847288181
              ],
              [
                -113.99624761329150301612,
                46.86647401797933288181
              ],
              [
                -113.99624419018440301612,
                46.86648021971652288181
              ],
              [
                -113.99620184683781301612,
                46.86646929464894288181
              ],
              [
                -113.99616164439325301612,
                46.86654213044679288181
              ],
              [
                -113.99631865112626301612,
                46.86658263991919288181
              ],
              [
                -113.99635517241944301612,
                46.86651647341074288181
              ],
              [
                -113.99635885357021301612,
                46.86650980417630688181
              ]
            ]
          ]
        ]
      },
      "id": "feature-43"
    },
    {
      "type": "Feature",
      "properties": {
        "__gm_id": "feature-49",
        "__gm_shape": "polygon",
        "label": "305",
        "level": "3",
        "fillColor": "#8f623f",
        "outlineColor": "#000000",
        "textSize": 16
      },
      "geometry": {
        "type": "MultiPolygon",
        "coordinates": [
          [
            [
              [
                -113.99620184683781301612,
                46.86646929464894288181
              ],
              [
                -113.99615979269789301612,
                46.86645844420002288181
              ],
              [
                -113.99616327676181301612,
                46.86645213202550288181
              ],
              [
                -113.99615285940286301612,
                46.86644944422665288181
              ],
              [
                -113.99615976630697301612,
                46.86643693079611288181
              ],
              [
                -113.99611834398154301612,
                46.86642624335354788181
              ],
              [
                -113.99611140504216301612,
                46.86643881482564288181
              ],
              [
                -113.99610120011775301612,
                46.86643618183643788181
              ],
              [
                -113.99609774808911301612,
                46.86644243597320288181
              ],
              [
                -113.99604521321953301612,
                46.86642888136461288181
              ],
              [
                -113.99600501077724301612,
                46.86650171721322888181
              ],
              [
                -113.99616164439325301612,
                46.86654213044679288181
              ],
              [
                -113.99620184683781301612,
                46.86646929464894288181
              ]
            ]
          ]
        ]
      },
      "id": "feature-49"
    },
    {
      "type": "Feature",
      "properties": {
        "__gm_id": "feature-55",
        "__gm_shape": "polygon",
        "label": "308",
        "textOffset": [
          0,
          0
        ],
        "textSize": 16,
        "level": "3",
        "fillColor": "#8f623f",
        "outlineColor": "#000000"
      },
      "geometry": {
        "type": "MultiPolygon",
        "coordinates": [
          [
            [
              [
                -113.99604521321953301612,
                46.86642888136461288181
              ],
              [
                -113.99604521321965301612,
                46.86639389908595288181
              ],
              [
                -113.99605501263622301612,
                46.86639389908637888181
              ],
              [
                -113.99605501263686301612,
                46.86638800711276288181
              ],
              [
                -113.99607498858732301612,
                46.86638800711407288181
              ],
              [
                -113.99607498859207301612,
                46.86635504051080288181
              ],
              [
                -113.99605466822327301612,
                46.86635504050952288181
              ],
              [
                -113.99605466822420301612,
                46.86634938909159888181
              ],
              [
                -113.99604396858612301612,
                46.86634938909114288181
              ],
              [
                -113.99604300363299301612,
                46.86628345006960288181
              ],
              [
                -113.99592689101889301612,
                46.86628392403386888181
              ],
              [
                -113.99592895749667301612,
                46.86643015723803288181
              ],
              [
                -113.99604521321953301612,
                46.86642888136461288181
              ]
            ]
          ]
        ]
      },
      "id": "feature-55"
    },
    {
      "type": "Feature",
      "properties": {
        "__gm_id": "feature-525",
        "__gm_shape": "polygon",
        "label": "311",
        "level": "3",
        "fillColor": "#8f623f",
        "outlineColor": "#000000",
        "textSize": 16
      },
      "geometry": {
        "type": "MultiPolygon",
        "coordinates": [
          [
            [
              [
                -113.99613252792629301612,
                46.86617338918384288181
              ],
              [
                -113.99613180120177301612,
                46.86613339159228888181
              ],
              [
                -113.99615513432330301612,
                46.86613319341853788181
              ],
              [
                -113.99615413903025301612,
                46.86607841431726288181
              ],
              [
                -113.99607693820065301612,
                46.86607907000339788181
              ],
              [
                -113.99607718017921301612,
                46.86609238806281288181
              ],
              [
                -113.99592419994373301612,
                46.86609368736063288181
              ],
              [
                -113.99592519881725301612,
                46.86617338918342288181
              ],
              [
                -113.99613252792629301612,
                46.86617338918384288181
              ]
            ]
          ]
        ]
      },
      "id": "feature-525"
    },
    {
      "type": "Feature",
      "properties": {
        "__gm_id": "feature-531",
        "__gm_shape": "polygon",
        "label": "310",
        "level": "3",
        "fillColor": "#8f623f",
        "outlineColor": "#000000",
        "textSize": 16
      },
      "geometry": {
        "type": "MultiPolygon",
        "coordinates": [
          [
            [
              [
                -113.99604137894005301612,
                46.86617321683386288181
              ],
              [
                -113.99592519881725301612,
                46.86617338918342288181
              ],
              [
                -113.99592689101889301612,
                46.86628392403386888181
              ],
              [
                -113.99604300363299301612,
                46.86628345006960288181
              ],
              [
                -113.99604252424305301612,
                46.86625092409343888181
              ],
              [
                -113.99605339229011301612,
                46.86625084921638888181
              ],
              [
                -113.99605328327071301612,
                46.86624345246267288181
              ],
              [
                -113.99606654104254301612,
                46.86624336112084288181
              ],
              [
                -113.99606608850387301612,
                46.86621265735158288181
              ],
              [
                -113.99605172124215301612,
                46.86621275633755288181
              ],
              [
                -113.99605159573444301612,
                46.86620424090654288181
              ],
              [
                -113.99604183718397301612,
                46.86620430813954688181
              ],
              [
                -113.99604137894005301612,
                46.86617321683386288181
              ]
            ]
          ]
        ]
      },
      "id": "feature-531"
    },
    {
      "type": "Feature",
      "properties": {
        "__gm_id": "feature-537",
        "__gm_shape": "polygon",
        "label": "312",
        "level": "3",
        "fillColor": "#8f623f",
        "outlineColor": "#000000",
        "textSize": 16
      },
      "geometry": {
        "type": "MultiPolygon",
        "coordinates": [
          [
            [
              [
                -113.99570540517745301612,
                46.86612823680315288181
              ],
              [
                -113.99574220312165301612,
                46.86612838900470288181
              ],
              [
                -113.99574347996047301612,
                46.86619866352689288181
              ],
              [
                -113.99586476598911301612,
                46.86619763341244288181
              ],
              [
                -113.99586434966805301612,
                46.86617471998994288181
              ],
              [
                -113.99588844244920301612,
                46.86617451536352888181
              ],
              [
                -113.99588697997785301612,
                46.86609402388689288181
              ],
              [
                -113.99583461586926301612,
                46.86609446862945888181
              ],
              [
                -113.99583435268616301612,
                46.86607998355444288181
              ],
              [
                -113.99578989029661301612,
                46.86608036118545688181
              ],
              [
                -113.99579015347918301612,
                46.86609484625970288181
              ],
              [
                -113.99570481166680301612,
                46.86609557108929288181
              ],
              [
                -113.99570540517745301612,
                46.86612823680315288181
              ]
            ]
          ]
        ]
      },
      "id": "feature-537"
    },
    {
      "type": "Feature",
      "properties": {
        "__gm_id": "feature-543",
        "__gm_shape": "polygon",
        "label": "309",
        "level": "3",
        "fillColor": "#8f623f",
        "outlineColor": "#000000",
        "textSize": 16
      },
      "geometry": {
        "type": "MultiPolygon",
        "coordinates": [
          [
            [
              [
                -113.99578788322802301612,
                46.86627838885911888181
              ],
              [
                -113.99578395875700301612,
                46.86627826771269288181
              ],
              [
                -113.99578395875761301612,
                46.86628663457978288181
              ],
              [
                -113.99576501565433301612,
                46.86628663458018288181
              ],
              [
                -113.99576501565586301612,
                46.86631563206998788181
              ],
              [
                -113.99578345584280301612,
                46.86631563206956288181
              ],
              [
                -113.99578345584309301612,
                46.86632410448297288181
              ],
              [
                -113.99578926813693301612,
                46.86632410448297288181
              ],
              [
                -113.99578926813723301612,
                46.86635437177409688181
              ],
              [
                -113.99589929375071301612,
                46.86635437177409688181
              ],
              [
                -113.99589929375082301612,
                46.86621328829344288181
              ],
              [
                -113.99578788322802301612,
                46.86621328829344288181
              ],
              [
                -113.99578788322802301612,
                46.86627838885911888181
              ]
            ]
          ]
        ]
      },
      "id": "feature-543"
    },
    {
      "type": "Feature",
      "properties": {
        "__gm_id": "feature-561",
        "__gm_shape": "polygon",
        "label": "306",
        "level": "3",
        "fillColor": "#8f623f",
        "outlineColor": "#000000",
        "textSize": 16,
        "textOffset": [
          0,
          0.5
        ]
      },
      "geometry": {
        "type": "MultiPolygon",
        "coordinates": [
          [
            [
              [
                -113.99607919525309301612,
                46.86654162048424288181
              ],
              [
                -113.99590368959459301612,
                46.86649544315878688181
              ],
              [
                -113.99577970823277301612,
                46.86649697992104288181
              ],
              [
                -113.99578051956905301612,
                46.86652757712935288181
              ],
              [
                -113.99576258871225301612,
                46.86652779938413288181
              ],
              [
                -113.99576374747345301612,
                46.86656423253677788181
              ],
              [
                -113.99582647620318301612,
                46.86658041726525788181
              ],
              [
                -113.99583325364250301612,
                46.86656813844044288181
              ],
              [
                -113.99584396338216301612,
                46.86657090167571788181
              ],
              [
                -113.99584729007623301612,
                46.86656487463540288181
              ],
              [
                -113.99597607514150301612,
                46.86659810264709288181
              ],
              [
                -113.99597320073913301612,
                46.86660331025774788181
              ],
              [
                -113.99599305997106301612,
                46.86660843416274288181
              ],
              [
                -113.99598575776041301612,
                46.86662166371744288181
              ],
              [
                -113.99602887415377301612,
                46.86663278822684288181
              ],
              [
                -113.99603905080117301612,
                46.86661435100316788181
              ],
              [
                -113.99607919525309301612,
                46.86654162048424288181
              ]
            ]
          ]
        ]
      },
      "id": "feature-561"
    },
    {
      "type": "Feature",
      "properties": {
        "__gm_id": "feature-567",
        "__gm_shape": "polygon",
        "label": "307",
        "textOffset": [
          0,
          0
        ],
        "textSize": 16,
        "level": "3",
        "fillColor": "#8f623f",
        "outlineColor": "#000000"
      },
      "geometry": {
        "type": "MultiPolygon",
        "coordinates": [
          [
            [
              [
                -113.99590368959459301612,
                46.86649544315878688181
              ],
              [
                -113.99589929375071301612,
                46.86635437177409688181
              ],
              [
                -113.99578926813723301612,
                46.86635437177409688181
              ],
              [
                -113.99579045658585301612,
                46.86642002113160288181
              ],
              [
                -113.99578481946172301612,
                46.86642006900899888181
              ],
              [
                -113.99578495388427301612,
                46.86642746725272288181
              ],
              [
                -113.99576715887598301612,
                46.86642761839053288181
              ],
              [
                -113.99576769483289301612,
                46.86645711598297288181
              ],
              [
                -113.99578545027235301612,
                46.86645696518119288181
              ],
              [
                -113.99578561813765301612,
                46.86646620404812688181
              ],
              [
                -113.99579129482285301612,
                46.86646615583473288181
              ],
              [
                -113.99579185298394301612,
                46.86649687577739288181
              ],
              [
                -113.99590368959459301612,
                46.86649544315878688181
              ]
            ]
          ]
        ]
      },
      "id": "feature-567"
    },
    {
      "type": "Feature",
      "id": "feature-32",
      "properties": {
        "__gm_id": "feature-32",
        "__gm_shape": "polygon",
        "fillColor": "#cccccc",
        "outlineColor": "#000000",
        "label": "Stairs",
        "textAngle": 292,
        "textSize": 14
      },
      "geometry": {
        "type": "MultiPolygon",
        "coordinates": [
          [
            [
              [
                -113.99635517241944301612,
                46.86651647341074288181
              ],
              [
                -113.99631865112626301612,
                46.86658263991919288181
              ],
              [
                -113.99635130745372301612,
                46.86659081102724288181
              ],
              [
                -113.99638770575346301612,
                46.86652486737989788181
              ],
              [
                -113.99635517241944301612,
                46.86651647341074288181
              ]
            ]
          ]
        ]
      }
    },
    {
      "type": "Feature",
      "id": "feature-40",
      "properties": {
        "__gm_id": "feature-40",
        "__gm_shape": "polygon",
        "fillColor": "#cccccc",
        "outlineColor": "#000000",
        "label": "Lifts",
        "textAngle": 89,
        "textSize": 14
      },
      "geometry": {
        "type": "MultiPolygon",
        "coordinates": [
          [
            [
              [
                -113.99570540517745301612,
                46.86612823680315288181
              ],
              [
                -113.99570669045384301612,
                46.86619897599101288181
              ],
              [
                -113.99574347996047301612,
                46.86619866352689288181
              ],
              [
                -113.99574220312165301612,
                46.86612838900470288181
              ],
              [
                -113.99570540517745301612,
                46.86612823680315288181
              ]
            ]
          ]
        ]
      }
    },
    {
      "type": "Feature",
      "id": "feature-44",
      "properties": {
        "__gm_id": "feature-44",
        "__gm_shape": "polygon",
        "fillColor": "#cccccc",
        "outlineColor": "#000000",
        "label": "Lifts",
        "textAngle": 290,
        "textSize": 14
      },
      "geometry": {
        "type": "MultiPolygon",
        "coordinates": [
          [
            [
              [
                -113.99600501077724301612,
                46.86650171721322888181
              ],
              [
                -113.99603486693401301612,
                46.86644762601833288181
              ],
              [
                -113.99599931480570301612,
                46.86643845315686288181
              ],
              [
                -113.99596946730671301612,
                46.86649252868045688181
              ],
              [
                -113.99600501077724301612,
                46.86650171721322888181
              ]
            ]
          ]
        ]
      }
    },
    {
      "type": "Feature",
      "properties": {
        "__gm_id": "feature-1711",
        "__gm_shape": "polygon",
        "fillColor": "#cccccc",
        "outlineColor": "#000000",
        "label": "Stairs",
        "textAngle": 89,
        "textSize": 14
      },
      "geometry": {
        "type": "MultiPolygon",
        "coordinates": [
          [
            [
              [
                -113.99592507741117301612,
                46.86616370195972288181
              ],
              [
                -113.99592437029804301612,
                46.86610306334066288181
              ],
              [
                -113.99588714446213301612,
                46.86610326625981688181
              ],
              [
                -113.99588785257259301612,
                46.86616399018237288181
              ],
              [
                -113.99592507741117301612,
                46.86616370195972288181
              ]
            ]
          ]
        ]
      },
      "id": "feature-1711"
    }
  ]
}