{
  "type": "FeatureCollection",
  "features": [
    {
      "type": "Feature",
      "properties": {
        "__gm_id": "feature-3",
        "__gm_shape": "polygon",
        "fillColor": "#b0966a",
        "level": "4"
      },
      "geometry": {
        "type": "MultiPolygon",
        "coordinates": [
          [
            [
              [
                -113.9961509224168,
                46.86621156740878
              ],
              [
                -113.99614944237968,
                46.866130108777185
              ],
              [
                -113.99594259443424,
                46.86613186558557
              ],
              [
                -113.99594276478855,
                46.8661412415656
              ],
              [
                -113.99588450306025,
                46.86614173639762
              ],
              [
                -113.99588433307686,
                46.866132380823245
              ],
              [
                -113.99572320615731,
                46.86613374931423
              ],
              [
                -113.99572599748842,
                46.86628737883922
              ],
              [
                -113.99580573508504,
                46.86628670161005
              ],
              [
                -113.99581024747445,
                46.86653505400233
              ],
              [
                -113.9957983580716,
                46.86653515498094
              ],
              [
                -113.9957992804358,
                46.86658591992369
              ],
              [
                -113.99645054980364,
                46.86675395436313
              ],
              [
                -113.99644724497385,
                46.86675994178509
              ],
              [
                -113.99656662278699,
                46.8667907424736
              ],
              [
                -113.9965916121296,
                46.86674546882372
              ],
              [
                -113.99657945103269,
                46.866742331134986
              ],
              [
                -113.99661316780644,
                46.86668124578259
              ],
              [
                -113.99662522609026,
                46.86668435694904
              ],
              [
                -113.99666302630008,
                46.86661587349357
              ],
              [
                -113.99659630792632,
                46.866598659414194
              ],
              [
                -113.99659317060939,
                46.86660434336437
              ],
              [
                -113.99641036332694,
                46.866557177039255
              ],
              [
                -113.99640699647757,
                46.86656327684304
              ],
              [
                -113.99637356690995,
                46.86655465163568
              ],
              [
                -113.99637724806072,
                46.866547982401244
              ],
              [
                -113.99606354134369,
                46.866467042466354
              ],
              [
                -113.99605977343056,
                46.8662113950588
              ],
              [
                -113.9961509224168,
                46.86621156740878
              ]
            ]
          ]
        ]
      },
      "id": "feature-3"
    },
    {
      "type": "Feature",
      "properties": {
        "__gm_id": "feature-23",
        "__gm_shape": "polygon",
        "level": "4",
        "label": "402",
        "textOffset": [
          -3.1,
          -1
        ],
        "textSize": 28
      },
      "geometry": {
        "type": "MultiPolygon",
        "coordinates": [
          [
            [
              [
                -113.99662522609026,
                46.86668435694904
              ],
              [
                -113.99664403964505,
                46.86665027203685
              ],
              [
                -113.9966636629086,
                46.86665533505206
              ],
              [
                -113.99668984360983,
                46.86660790289676
              ],
              [
                -113.99661611052886,
                46.86658887894126
              ],
              [
                -113.99660891648281,
                46.866601912562146
              ],
              [
                -113.99659630792648,
                46.866598659414365
              ],
              [
                -113.99659317060821,
                46.86660434336656
              ],
              [
                -113.99645188785779,
                46.866567890836336
              ],
              [
                -113.99645933972529,
                46.86655439010539
              ],
              [
                -113.99641691896144,
                46.86654344506641
              ],
              [
                -113.99640610024397,
                46.866563045604835
              ],
              [
                -113.99636970194423,
                46.86662898925218
              ],
              [
                -113.99651785180762,
                46.86666721353092
              ],
              [
                -113.99652295406452,
                46.86665796966474
              ],
              [
                -113.99661316780644,
                46.86668124578259
              ],
              [
                -113.99662522609026,
                46.86668435694904
              ]
            ]
          ]
        ]
      },
      "id": "feature-23"
    },
    {
      "type": "Feature",
      "properties": {
        "__gm_id": "feature-31",
        "__gm_shape": "polygon",
        "level": "4",
        "textSize": 28,
        "label": "401",
        "textOffset": [
          2.9,
          1
        ]
      },
      "geometry": {
        "type": "MultiPolygon",
        "coordinates": [
          [
            [
              [
                -113.99652295406452,
                46.86665796966474
              ],
              [
                -113.99651785180762,
                46.86666721353092
              ],
              [
                -113.99650737832391,
                46.86668618855742
              ],
              [
                -113.99633924876836,
                46.866642809315096
              ],
              [
                -113.99629942319147,
                46.86671496213219
              ],
              [
                -113.99634221972434,
                46.86672600408798
              ],
              [
                -113.99633879178207,
                46.866732214558
              ],
              [
                -113.99634580565413,
                46.86673402421019
              ],
              [
                -113.99633854975454,
                46.86674716986121
              ],
              [
                -113.99638610315722,
                46.86675943912962
              ],
              [
                -113.99639344849626,
                46.86674613144456
              ],
              [
                -113.99640007716835,
                46.86674784171106
              ],
              [
                -113.99640341567819,
                46.86674179327409
              ],
              [
                -113.99645054979918,
                46.86675395437325
              ],
              [
                -113.99644724497314,
                46.86675994178515
              ],
              [
                -113.99651341681147,
                46.86677701480377
              ],
              [
                -113.99650607574557,
                46.86679031473801
              ],
              [
                -113.99657884434778,
                46.86680908977644
              ],
              [
                -113.99660714846831,
                46.866757810721
              ],
              [
                -113.99658758582655,
                46.866752763356686
              ],
              [
                -113.99659161213329,
                46.86674546882483
              ],
              [
                -113.99657945103414,
                46.866742331134276
              ],
              [
                -113.99661316781891,
                46.86668124578608
              ],
              [
                -113.99652295406452,
                46.86665796966474
              ]
            ]
          ]
        ]
      },
      "id": "feature-31"
    },
    {
      "type": "Feature",
      "properties": {
        "__gm_id": "feature-37",
        "__gm_shape": "polygon",
        "level": "4",
        "textSize": 28,
        "label": "404"
      },
      "geometry": {
        "type": "MultiPolygon",
        "coordinates": [
          [
            [
              [
                -113.99633924876836,
                46.866642809315096
              ],
              [
                -113.9960975897436,
                46.86657979870918
              ],
              [
                -113.99605744529168,
                46.866652529228105
              ],
              [
                -113.99614944889133,
                46.86667626718207
              ],
              [
                -113.99614683853243,
                46.86668099641702
              ],
              [
                -113.99615368819452,
                46.86668276370574
              ],
              [
                -113.99614587697208,
                46.8666969154429
              ],
              [
                -113.99619396685137,
                46.86670932315366
              ],
              [
                -113.99620156880684,
                46.86669555055195
              ],
              [
                -113.99620811513783,
                46.86669723957638
              ],
              [
                -113.9962109347768,
                46.866692131181054
              ],
              [
                -113.99629942319147,
                46.86671496213219
              ],
              [
                -113.99633924876836,
                46.866642809315096
              ]
            ]
          ]
        ]
      },
      "id": "feature-37"
    },
    {
      "type": "Feature",
      "properties": {
        "__gm_id": "feature-43",
        "__gm_shape": "polygon",
        "level": "4",
        "label": "403",
        "textSize": 28
      },
      "geometry": {
        "type": "MultiPolygon",
        "coordinates": [
          [
            [
              [
                -113.99637724806072,
                46.866547982401244
              ],
              [
                -113.99632473696495,
                46.86653443394064
              ],
              [
                -113.99632801555707,
                46.86652849402199
              ],
              [
                -113.99631736929253,
                46.86652574716939
              ],
              [
                -113.99632462040225,
                46.866512610124346
              ],
              [
                -113.99628163973148,
                46.86650152063444
              ],
              [
                -113.99627453314645,
                46.86651439584341
              ],
              [
                -113.99626600778201,
                46.86651219620427
              ],
              [
                -113.99626258467491,
                46.86651839794146
              ],
              [
                -113.99622024132832,
                46.86650747287388
              ],
              [
                -113.99618003888376,
                46.86658030867173
              ],
              [
                -113.99633704561677,
                46.86662081814413
              ],
              [
                -113.99637356690995,
                46.86655465163568
              ],
              [
                -113.99637724806072,
                46.866547982401244
              ]
            ]
          ]
        ]
      },
      "id": "feature-43"
    },
    {
      "type": "Feature",
      "properties": {
        "__gm_id": "feature-49",
        "__gm_shape": "polygon",
        "level": "4",
        "textSize": 28,
        "label": "405"
      },
      "geometry": {
        "type": "MultiPolygon",
        "coordinates": [
          [
            [
              [
                -113.99622024132832,
                46.86650747287388
              ],
              [
                -113.9961781871884,
                46.86649662242496
              ],
              [
                -113.99618167125232,
                46.86649031025044
              ],
              [
                -113.99617125389337,
                46.86648762245159
              ],
              [
                -113.99617816079748,
                46.86647510902105
              ],
              [
                -113.99613673847205,
                46.866464421578485
              ],
              [
                -113.99612979953267,
                46.86647699305058
              ],
              [
                -113.99611959460826,
                46.866474360061375
              ],
              [
                -113.99611614257962,
                46.86648061419814
              ],
              [
                -113.99606360771004,
                46.86646705958955
              ],
              [
                -113.99602340526775,
                46.866539895438166
              ],
              [
                -113.99618003888376,
                46.86658030867173
              ],
              [
                -113.99622024132832,
                46.86650747287388
              ]
            ]
          ]
        ]
      },
      "id": "feature-49"
    },
    {
      "type": "Feature",
      "properties": {
        "__gm_id": "feature-55",
        "__gm_shape": "polygon",
        "level": "4",
        "label": "408",
        "textOffset": [
          0,
          0.9
        ]
      },
      "geometry": {
        "type": "MultiPolygon",
        "coordinates": [
          [
            [
              [
                -113.99606360771004,
                46.86646705958955
              ],
              [
                -113.99606360771016,
                46.86643207731089
              ],
              [
                -113.99607340712673,
                46.866432077311316
              ],
              [
                -113.99607340712737,
                46.8664261853377
              ],
              [
                -113.99609338307783,
                46.86642618533901
              ],
              [
                -113.99609338308258,
                46.86639321873574
              ],
              [
                -113.99607306271378,
                46.86639321873446
              ],
              [
                -113.99607306271471,
                46.866387567316536
              ],
              [
                -113.99606236307663,
                46.86638756731608
              ],
              [
                -113.9960613981235,
                46.86632162829454
              ],
              [
                -113.9959452855094,
                46.866322102258806
              ],
              [
                -113.99594735198718,
                46.86646833546297
              ],
              [
                -113.99606360771004,
                46.86646705958955
              ]
            ]
          ]
        ]
      },
      "id": "feature-55"
    },
    {
      "type": "Feature",
      "properties": {
        "__gm_id": "feature-525",
        "__gm_shape": "polygon",
        "level": "4",
        "label": "411",
        "textOffset": [
          2,
          0
        ]
      },
      "geometry": {
        "type": "MultiPolygon",
        "coordinates": [
          [
            [
              [
                -113.9961509224168,
                46.86621156740878
              ],
              [
                -113.99615019569228,
                46.866171569817226
              ],
              [
                -113.99617352881381,
                46.866171371643475
              ],
              [
                -113.99617253352076,
                46.8661165925422
              ],
              [
                -113.99609533269116,
                46.866117248228335
              ],
              [
                -113.99609557466972,
                46.86613056628775
              ],
              [
                -113.99594259443424,
                46.86613186558557
              ],
              [
                -113.99594359330776,
                46.86621156740836
              ],
              [
                -113.9961509224168,
                46.86621156740878
              ]
            ]
          ]
        ]
      },
      "id": "feature-525"
    },
    {
      "type": "Feature",
      "properties": {
        "__gm_id": "feature-531",
        "__gm_shape": "polygon",
        "level": "4",
        "label": "410"
      },
      "geometry": {
        "type": "MultiPolygon",
        "coordinates": [
          [
            [
              [
                -113.99605977343056,
                46.8662113950588
              ],
              [
                -113.99594359330776,
                46.86621156740836
              ],
              [
                -113.9959452855094,
                46.866322102258806
              ],
              [
                -113.9960613981235,
                46.86632162829454
              ],
              [
                -113.99606091873356,
                46.866289102318376
              ],
              [
                -113.99607178678062,
                46.866289027441326
              ],
              [
                -113.99607167776122,
                46.86628163068761
              ],
              [
                -113.99608493553305,
                46.86628153934578
              ],
              [
                -113.99608448299438,
                46.86625083557652
              ],
              [
                -113.99607011573266,
                46.86625093456249
              ],
              [
                -113.99606999022495,
                46.86624241913148
              ],
              [
                -113.99606023167448,
                46.866242486364484
              ],
              [
                -113.99605977343056,
                46.8662113950588
              ]
            ]
          ]
        ]
      },
      "id": "feature-531"
    },
    {
      "type": "Feature",
      "properties": {
        "__gm_id": "feature-537",
        "__gm_shape": "polygon",
        "level": "4",
        "label": "412"
      },
      "geometry": {
        "type": "MultiPolygon",
        "coordinates": [
          [
            [
              [
                -113.99572379966796,
                46.86616641502809
              ],
              [
                -113.99576059761216,
                46.86616656722964
              ],
              [
                -113.99576187445098,
                46.86623684175183
              ],
              [
                -113.99588316047962,
                46.86623581163738
              ],
              [
                -113.99588274415856,
                46.86621289821488
              ],
              [
                -113.99590683693971,
                46.866212693588466
              ],
              [
                -113.99590537446836,
                46.86613220211183
              ],
              [
                -113.99585301035977,
                46.866132646854396
              ],
              [
                -113.99585274717667,
                46.86611816177938
              ],
              [
                -113.99580828478712,
                46.866118539410394
              ],
              [
                -113.99580854796969,
                46.86613302448464
              ],
              [
                -113.99572320615731,
                46.86613374931423
              ],
              [
                -113.99572379966796,
                46.86616641502809
              ]
            ]
          ]
        ]
      },
      "id": "feature-537"
    },
    {
      "type": "Feature",
      "properties": {
        "__gm_id": "feature-543",
        "__gm_shape": "polygon",
        "level": "4",
        "label": "409",
        "textOffset": [
          0,
          1.2
        ]
      },
      "geometry": {
        "type": "MultiPolygon",
        "coordinates": [
          [
            [
              [
                -113.99580627771853,
                46.866316567084056
              ],
              [
                -113.99580235324751,
                46.86631644593763
              ],
              [
                -113.99580235324812,
                46.86632481280472
              ],
              [
                -113.99578341014484,
                46.86632481280512
              ],
              [
                -113.99578341014637,
                46.866353810294925
              ],
              [
                -113.99580185033331,
                46.8663538102945
              ],
              [
                -113.9958018503336,
                46.86636228270791
              ],
              [
                -113.99580766262744,
                46.86636228270791
              ],
              [
                -113.99580766262774,
                46.866392549999034
              ],
              [
                -113.99591768824122,
                46.866392549999034
              ],
              [
                -113.99591768824133,
                46.86625146651838
              ],
              [
                -113.99580627771853,
                46.86625146651838
              ],
              [
                -113.99580627771853,
                46.866316567084056
              ]
            ]
          ]
        ]
      },
      "id": "feature-543"
    },
    {
      "type": "Feature",
      "properties": {
        "__gm_id": "feature-561",
        "__gm_shape": "polygon",
        "level": "4",
        "label": "406",
        "textSize": 28
      },
      "geometry": {
        "type": "MultiPolygon",
        "coordinates": [
          [
            [
              [
                -113.9960975897436,
                46.86657979870918
              ],
              [
                -113.9959220840851,
                46.866533621383724
              ],
              [
                -113.99579810272328,
                46.86653515814598
              ],
              [
                -113.99579891405956,
                46.86656575535429
              ],
              [
                -113.99578098320276,
                46.86656597760907
              ],
              [
                -113.99578214196396,
                46.866602410761715
              ],
              [
                -113.99584487069369,
                46.866618595490195
              ],
              [
                -113.99585164813301,
                46.86660631666538
              ],
              [
                -113.99586235787267,
                46.866609079900655
              ],
              [
                -113.99586568456674,
                46.86660305286034
              ],
              [
                -113.99599446963201,
                46.86663628087203
              ],
              [
                -113.99599159522964,
                46.866641488482685
              ],
              [
                -113.99601145446157,
                46.86664661238768
              ],
              [
                -113.99600415225092,
                46.86665984194238
              ],
              [
                -113.99604726864428,
                46.86667096645178
              ],
              [
                -113.99605744529168,
                46.866652529228105
              ],
              [
                -113.9960975897436,
                46.86657979870918
              ]
            ]
          ]
        ]
      },
      "id": "feature-561"
    },
    {
      "type": "Feature",
      "properties": {
        "__gm_id": "feature-567",
        "__gm_shape": "polygon",
        "level": "4",
        "label": "407",
        "textOffset": [
          0,
          1.1
        ]
      },
      "geometry": {
        "type": "MultiPolygon",
        "coordinates": [
          [
            [
              [
                -113.9959220840851,
                46.866533621383724
              ],
              [
                -113.99591768824122,
                46.866392549999034
              ],
              [
                -113.99580766262774,
                46.866392549999034
              ],
              [
                -113.99580885107636,
                46.86645819935654
              ],
              [
                -113.99580321395223,
                46.866458247233936
              ],
              [
                -113.99580334837478,
                46.86646564547766
              ],
              [
                -113.99578555336649,
                46.86646579661547
              ],
              [
                -113.9957860893234,
                46.86649529420791
              ],
              [
                -113.99580384476286,
                46.86649514340613
              ],
              [
                -113.99580401262816,
                46.866504382273064
              ],
              [
                -113.99580968931336,
                46.86650433405967
              ],
              [
                -113.99581024747445,
                46.86653505400233
              ],
              [
                -113.9959220840851,
                46.866533621383724
              ]
            ]
          ]
        ]
      },
      "id": "feature-567"
    }
  ]
}