{
  "type": "FeatureCollection",
  "features": [
    {
      "type": "Feature",
      "id": "feature-43",
      "properties": {
        "fillColor": "#cccccc",
        "outlineColor": "#000000",
        "level": "a1",
        "__gm_id": "feature-43",
        "__gm_shape": "polygon"
      },
      "geometry": {
        "type": "MultiPolygon",
        "coordinates": [
          [
            [
              [
                -113.99713039496906301612,
                46.86649281351057888181
              ],
              [
                -113.99712388880400301612,
                46.86611111484245688181
              ],
              [
                -113.99570505847883301612,
                46.86612241984321288181
              ],
              [
                -113.99571204800195301612,
                46.86653247555441288181
              ],
              [
                -113.99633199653889301612,
                46.86669201316695788181
              ],
              [
                -113.99631882364356301612,
                46.86671594093559288181
              ],
              [
                -113.99693831452775301612,
                46.86687536023383288181
              ],
              [
                -113.99710991009151301612,
                46.86656366734769288181
              ],
              [
                -113.99709327462145301612,
                46.86655938637001288181
              ],
              [
                -113.99713039496906301612,
                46.86649281351057888181
              ]
            ]
          ]
        ]
      }
    },
    {
      "type": "Feature",
      "id": "feature-49",
      "properties": {
        "fillColor": "#808080",
        "label": "Future Phase",
        "textAngle": 21,
        "outlineColor": "#000000",
        "level": "a1",
        "textSize": 20,
        "__gm_id": "feature-49",
        "__gm_shape": "polygon"
      },
      "geometry": {
        "type": "MultiPolygon",
        "coordinates": [
          [
            [
              [
                -113.99693831452775301612,
                46.86687536023383288181
              ],
              [
                -113.99700127921047301612,
                46.86676098893358288181
              ],
              [
                -113.99638178832582301612,
                46.86660156929693288181
              ],
              [
                -113.99631882364356301612,
                46.86671594093559288181
              ],
              [
                -113.99693831452775301612,
                46.86687536023383288181
              ]
            ]
          ]
        ]
      }
    },
    {
      "type": "Feature",
      "id": "feature-85",
      "properties": {
        "fillColor": "#cccccc",
        "outlineColor": "#000000",
        "level": "a1",
        "__gm_id": "feature-85",
        "__gm_shape": "polygon"
      },
      "geometry": {
        "type": "MultiPolygon",
        "coordinates": [
          [
            [
              [
                -113.99708518010780301612,
                46.86650388017742288181
              ],
              [
                -113.99711123578732301612,
                46.86645637545558788181
              ],
              [
                -113.99707957691901301612,
                46.86644825851172788181
              ],
              [
                -113.99705368270583301612,
                46.86649546885434288181
              ],
              [
                -113.99708518010780301612,
                46.86650388017742288181
              ]
            ]
          ]
        ]
      }
    },
    {
      "type": "Feature",
      "id": "feature-89",
      "properties": {
        "fillColor": "#cccccc",
        "outlineColor": "#000000",
        "level": "a1",
        "__gm_id": "feature-89",
        "__gm_shape": "polygon"
      },
      "geometry": {
        "type": "MultiPolygon",
        "coordinates": [
          [
            [
              [
                -113.99707957691901301612,
                46.86644825851172788181
              ],
              [
                -113.99707442697033301612,
                46.86644662001635288181
              ],
              [
                -113.99704237434916301612,
                46.86644662001635288181
              ],
              [
                -113.99704382188666301612,
                46.86647447249737288181
              ],
              [
                -113.99703392140880301612,
                46.86649040230469288181
              ],
              [
                -113.99705368270583301612,
                46.86649546885434288181
              ],
              [
                -113.99707957691901301612,
                46.86644825851172788181
              ]
            ]
          ]
        ]
      }
    },
    {
      "type": "Feature",
      "id": "feature-687",
      "properties": {
        "fillColor": "#b0966a",
        "outlineColor": "#000000",
        "level": "a1",
        "__gm_id": "feature-687",
        "__gm_shape": "polygon"
      },
      "geometry": {
        "type": "MultiPolygon",
        "coordinates": [
          [
            [
              [
                -113.99638178832582301612,
                46.86660156929693288181
              ],
              [
                -113.99576241046687301612,
                46.86644117276543788181
              ],
              [
                -113.99575217391431301612,
                46.86645958896916288181
              ],
              [
                -113.99637137993219301612,
                46.86662047554552288181
              ],
              [
                -113.99638178832582301612,
                46.86660156929693288181
              ]
            ]
          ]
        ]
      }
    },
    {
      "type": "Feature",
      "id": "feature-931",
      "properties": {
        "fillColor": "#cccccc",
        "outlineColor": "#000000",
        "level": "a1",
        "__gm_id": "feature-931",
        "__gm_shape": "polygon"
      },
      "geometry": {
        "type": "MultiPolygon",
        "coordinates": [
          [
            [
              [
                -113.99575217391431301612,
                46.86645958896916288181
              ],
              [
                -113.99571204800195301612,
                46.86653247555441288181
              ],
              [
                -113.99633199653889301612,
                46.86669201316695788181
              ],
              [
                -113.99637137993219301612,
                46.86662047554552288181
              ],
              [
                -113.99575217391431301612,
                46.86645958896916288181
              ]
            ]
          ]
        ]
      }
    },
    {
      "type": "Feature",
      "id": "feature-10",
      "properties": {
        "fillColor": "#cccccc",
        "outlineColor": "#000000",
        "level": "a1",
        "__gm_id": "feature-10",
        "__gm_shape": "polygon"
      },
      "geometry": {
        "type": "MultiPolygon",
        "coordinates": [
          [
            [
              [
                -113.99690485671550301612,
                46.86673617562317788181
              ],
              [
                -113.99700127921047301612,
                46.86676098893358288181
              ],
              [
                -113.99706922740488301612,
                46.86663756513374688181
              ],
              [
                -113.99697306848000301612,
                46.86661281959306288181
              ],
              [
                -113.99690485671550301612,
                46.86673617562317788181
              ]
            ]
          ]
        ]
      }
    },
    {
      "type": "Feature",
      "id": "feature-14",
      "properties": {
        "fillColor": "#cccccc",
        "outlineColor": "#000000",
        "level": "a1",
        "__gm_id": "feature-14",
        "__gm_shape": "polygon"
      },
      "geometry": {
        "type": "MultiPolygon",
        "coordinates": [
          [
            [
              [
                -113.99690485671550301612,
                46.86673617562317788181
              ],
              [
                -113.99700118891245301612,
                46.86676096559324688181
              ],
              [
                -113.99702441367916301612,
                46.86671896532812288181
              ],
              [
                -113.99696011564404301612,
                46.86670234558326688181
              ],
              [
                -113.99695808865464301612,
                46.86670601124550288181
              ],
              [
                -113.99692610768886301612,
                46.86669774480799688181
              ],
              [
                -113.99690485671550301612,
                46.86673617562317788181
              ]
            ]
          ]
        ]
      }
    },
    {
      "type": "Feature",
      "id": "feature-35",
      "properties": {
        "fillColor": "#cccccc",
        "outlineColor": "#000000",
        "level": "a1",
        "__gm_id": "feature-35",
        "__gm_shape": "polygon"
      },
      "geometry": {
        "type": "MultiPolygon",
        "coordinates": [
          [
            [
              [
                -113.99692610768886301612,
                46.86669774480799688181
              ],
              [
                -113.99695808865464301612,
                46.86670601124550288181
              ],
              [
                -113.99697280754351301612,
                46.86667939321192288181
              ],
              [
                -113.99694082657977301612,
                46.86667112677023288181
              ],
              [
                -113.99692610768886301612,
                46.86669774480799688181
              ]
            ]
          ]
        ]
      }
    },
    {
      "type": "Feature",
      "id": "feature-39",
      "properties": {
        "fillColor": "#cccccc",
        "outlineColor": "#000000",
        "level": "a1",
        "__gm_id": "feature-39",
        "__gm_shape": "polygon"
      },
      "geometry": {
        "type": "MultiPolygon",
        "coordinates": [
          [
            [
              [
                -113.99697280754351301612,
                46.86667939321192288181
              ],
              [
                -113.99696011564404301612,
                46.86670234558326688181
              ],
              [
                -113.99699127547615301612,
                46.86671039977168288181
              ],
              [
                -113.99700403428729301612,
                46.86668732639104288181
              ],
              [
                -113.99697280754351301612,
                46.86667939321192288181
              ]
            ]
          ]
        ]
      }
    },
    {
      "type": "Feature",
      "id": "feature-46",
      "properties": {
        "fillColor": "#cccccc",
        "outlineColor": "#000000",
        "level": "a1",
        "__gm_id": "feature-46",
        "__gm_shape": "polygon"
      },
      "geometry": {
        "type": "MultiPolygon",
        "coordinates": [
          [
            [
              [
                -113.99702441367916301612,
                46.86671896532812288181
              ],
              [
                -113.99703712622669301612,
                46.86669587999231288181
              ],
              [
                -113.99700403428729301612,
                46.86668732639104288181
              ],
              [
                -113.99699127547615301612,
                46.86671039977168288181
              ],
              [
                -113.99702441367916301612,
                46.86671896532812288181
              ]
            ]
          ]
        ]
      }
    },
    {
      "type": "Feature",
      "id": "feature-52",
      "properties": {
        "fillColor": "#cccccc",
        "outlineColor": "#000000",
        "level": "a1",
        "__gm_id": "feature-52",
        "__gm_shape": "polygon"
      },
      "geometry": {
        "type": "MultiPolygon",
        "coordinates": [
          [
            [
              [
                -113.99694082657977301612,
                46.86667112677023288181
              ],
              [
                -113.99701145888770301612,
                46.86668924550094288181
              ],
              [
                -113.99702387862170301612,
                46.86666661386195288181
              ],
              [
                -113.99695333852543301612,
                46.86664851877825288181
              ],
              [
                -113.99694082657977301612,
                46.86667112677023288181
              ]
            ]
          ]
        ]
      }
    },
    {
      "type": "Feature",
      "id": "feature-56",
      "properties": {
        "fillColor": "#cccccc",
        "outlineColor": "#000000",
        "level": "a1",
        "__gm_id": "feature-56",
        "__gm_shape": "polygon"
      },
      "geometry": {
        "type": "MultiPolygon",
        "coordinates": [
          [
            [
              [
                -113.99703712622669301612,
                46.86669587999231288181
              ],
              [
                -113.99706922740488301612,
                46.86663756513374688181
              ],
              [
                -113.99697306848000301612,
                46.86661281959306288181
              ],
              [
                -113.99695333852543301612,
                46.86664851877825288181
              ],
              [
                -113.99702387862170301612,
                46.86666661386195288181
              ],
              [
                -113.99701145888770301612,
                46.86668924550094288181
              ],
              [
                -113.99703712622669301612,
                46.86669587999231288181
              ]
            ]
          ]
        ]
      }
    },
    {
      "type": "Feature",
      "id": "feature-60",
      "properties": {
        "fillColor": "#cccccc",
        "outlineColor": "#000000",
        "level": "a1",
        "__gm_id": "feature-60",
        "__gm_shape": "polygon"
      },
      "geometry": {
        "type": "MultiPolygon",
        "coordinates": [
          [
            [
              [
                -113.99712388880400301612,
                46.86611111484245688181
              ],
              [
                -113.99691108784079301612,
                46.86611281040447688181
              ],
              [
                -113.99691228424969301612,
                46.86618300063432288181
              ],
              [
                -113.99694159867725301612,
                46.86618276706193288181
              ],
              [
                -113.99694191136219301612,
                46.86620111146180888181
              ],
              [
                -113.99691259160900301612,
                46.86620134507572288181
              ],
              [
                -113.99691315444593301612,
                46.86623436527637288181
              ],
              [
                -113.99708794874619301612,
                46.86627964187585288181
              ],
              [
                -113.99712675347428301612,
                46.86627917743198288181
              ],
              [
                -113.99712388880400301612,
                46.86611111484245688181
              ]
            ]
          ]
        ]
      }
    },
    {
      "type": "Feature",
      "id": "feature-64",
      "properties": {
        "fillColor": "#cccccc",
        "outlineColor": "#000000",
        "level": "a1",
        "__gm_id": "feature-64",
        "__gm_shape": "polygon"
      },
      "geometry": {
        "type": "MultiPolygon",
        "coordinates": [
          [
            [
              [
                -113.99691315444593301612,
                46.86623436527637288181
              ],
              [
                -113.99691259160900301612,
                46.86620134507572288181
              ],
              [
                -113.99694191136219301612,
                46.86620111146180888181
              ],
              [
                -113.99694159867725301612,
                46.86618276706193288181
              ],
              [
                -113.99691228424969301612,
                46.86618300063432288181
              ],
              [
                -113.99691108784079301612,
                46.86611281040447688181
              ],
              [
                -113.99656559957997301612,
                46.86611556319727288181
              ],
              [
                -113.99656609840615301612,
                46.86614482800874288181
              ],
              [
                -113.99691315444593301612,
                46.86623436527637288181
              ]
            ]
          ]
        ]
      }
    },
    {
      "type": "Feature",
      "id": "feature-70",
      "properties": {
        "fillColor": "#cccccc",
        "outlineColor": "#000000",
        "level": "a1",
        "__gm_id": "feature-70",
        "__gm_shape": "polygon"
      },
      "geometry": {
        "type": "MultiPolygon",
        "coordinates": [
          [
            [
              [
                -113.99656559957997301612,
                46.86611556319727288181
              ],
              [
                -113.99656609840615301612,
                46.86614482800874288181
              ],
              [
                -113.99664353100722301612,
                46.86616480492071788181
              ],
              [
                -113.99664291875217301612,
                46.86611494713082788181
              ],
              [
                -113.99656559957997301612,
                46.86611556319727288181
              ]
            ]
          ]
        ]
      }
    },
    {
      "type": "Feature",
      "id": "feature-74",
      "properties": {
        "fillColor": "#cccccc",
        "outlineColor": "#000000",
        "level": "a1",
        "__gm_id": "feature-74",
        "__gm_shape": "polygon"
      },
      "geometry": {
        "type": "MultiPolygon",
        "coordinates": [
          [
            [
              [
                -113.99664291875217301612,
                46.86611494713082788181
              ],
              [
                -113.99664337506968301612,
                46.86615210645388288181
              ],
              [
                -113.99671866717118301612,
                46.86615167425350288181
              ],
              [
                -113.99671820877531301612,
                46.86611434565211288181
              ],
              [
                -113.99664291875217301612,
                46.86611494713082788181
              ]
            ]
          ]
        ]
      }
    },
    {
      "type": "Feature",
      "id": "feature-80",
      "properties": {
        "fillColor": "#cccccc",
        "outlineColor": "#000000",
        "level": "a1",
        "__gm_id": "feature-80",
        "__gm_shape": "polygon"
      },
      "geometry": {
        "type": "MultiPolygon",
        "coordinates": [
          [
            [
              [
                -113.99671820877531301612,
                46.86611434565211288181
              ],
              [
                -113.99671866717118301612,
                46.86615167425350288181
              ],
              [
                -113.99676075001416301612,
                46.86615143268463288181
              ],
              [
                -113.99676029052962301612,
                46.86611401541347288181
              ],
              [
                -113.99671820877531301612,
                46.86611434565211288181
              ]
            ]
          ]
        ]
      }
    },
    {
      "type": "Feature",
      "id": "feature-84",
      "properties": {
        "fillColor": "#cccccc",
        "outlineColor": "#000000",
        "level": "a1",
        "__gm_id": "feature-84",
        "__gm_shape": "polygon"
      },
      "geometry": {
        "type": "MultiPolygon",
        "coordinates": [
          [
            [
              [
                -113.99676029052962301612,
                46.86611401541347288181
              ],
              [
                -113.99676075001416301612,
                46.86615143268463288181
              ],
              [
                -113.99680205865077301612,
                46.86615119556009288181
              ],
              [
                -113.99680159798798301612,
                46.86611368235214288181
              ],
              [
                -113.99676029052962301612,
                46.86611401541347288181
              ]
            ]
          ]
        ]
      }
    },
    {
      "type": "Feature",
      "id": "feature-88",
      "properties": {
        "fillColor": "#cccccc",
        "outlineColor": "#000000",
        "level": "a1",
        "__gm_id": "feature-88",
        "__gm_shape": "polygon"
      },
      "geometry": {
        "type": "MultiPolygon",
        "coordinates": [
          [
            [
              [
                -113.99680159798798301612,
                46.86611368235214288181
              ],
              [
                -113.99680205865077301612,
                46.86615119556009288181
              ],
              [
                -113.99683987337092301612,
                46.86615097849074288181
              ],
              [
                -113.99683941168553301612,
                46.86611338218736788181
              ],
              [
                -113.99680159798798301612,
                46.86611368235214288181
              ]
            ]
          ]
        ]
      }
    },
    {
      "type": "Feature",
      "id": "feature-92",
      "properties": {
        "fillColor": "#cccccc",
        "outlineColor": "#000000",
        "level": "a1",
        "__gm_id": "feature-92",
        "__gm_shape": "polygon"
      },
      "geometry": {
        "type": "MultiPolygon",
        "coordinates": [
          [
            [
              [
                -113.99683941168553301612,
                46.86611338218736788181
              ],
              [
                -113.99683987337092301612,
                46.86615097849074288181
              ],
              [
                -113.99691173124409301612,
                46.86615056600218288181
              ],
              [
                -113.99691108784079301612,
                46.86611281040447688181
              ],
              [
                -113.99683941168553301612,
                46.86611338218736788181
              ]
            ]
          ]
        ]
      }
    },
    {
      "type": "Feature",
      "id": "feature-96",
      "properties": {
        "fillColor": "#cccccc",
        "outlineColor": "#000000",
        "level": "a1",
        "__gm_id": "feature-96",
        "__gm_shape": "polygon"
      },
      "geometry": {
        "type": "MultiPolygon",
        "coordinates": [
          [
            [
              [
                -113.99691173124409301612,
                46.86615056600218288181
              ],
              [
                -113.99687591792214301612,
                46.86615077158296888181
              ],
              [
                -113.99687616275592301612,
                46.86617070910385288181
              ],
              [
                -113.99691207625723301612,
                46.86617050294893288181
              ],
              [
                -113.99691173124409301612,
                46.86615056600218288181
              ]
            ]
          ]
        ]
      }
    },
    {
      "type": "Feature",
      "id": "feature-100",
      "properties": {
        "fillColor": "#cccccc",
        "outlineColor": "#000000",
        "level": "a1",
        "__gm_id": "feature-100",
        "__gm_shape": "polygon"
      },
      "geometry": {
        "type": "MultiPolygon",
        "coordinates": [
          [
            [
              [
                -113.99691315444593301612,
                46.86623436527637288181
              ],
              [
                -113.99691259160900301612,
                46.86620134507572288181
              ],
              [
                -113.99694191136219301612,
                46.86620111146180888181
              ],
              [
                -113.99694159867725301612,
                46.86618276706193288181
              ],
              [
                -113.99691228424969301612,
                46.86618300063432288181
              ],
              [
                -113.99691207625723301612,
                46.86617050294893288181
              ],
              [
                -113.99687616275592301612,
                46.86617070910385288181
              ],
              [
                -113.99687591792214301612,
                46.86615077158296888181
              ],
              [
                -113.99680205865077301612,
                46.86615119556009288181
              ],
              [
                -113.99680273116489301612,
                46.86620596021996288181
              ],
              [
                -113.99691315444593301612,
                46.86623436527637288181
              ]
            ]
          ]
        ]
      }
    },
    {
      "type": "Feature",
      "id": "feature-106",
      "properties": {
        "fillColor": "#cccccc",
        "outlineColor": "#000000",
        "level": "a1",
        "__gm_id": "feature-106",
        "__gm_shape": "polygon"
      },
      "geometry": {
        "type": "MultiPolygon",
        "coordinates": [
          [
            [
              [
                -113.99664337506968301612,
                46.86615210645388288181
              ],
              [
                -113.99664353100722301612,
                46.86616480492071788181
              ],
              [
                -113.99676163676047301612,
                46.86619519182187688181
              ],
              [
                -113.99676126287601301612,
                46.86616474539188288181
              ],
              [
                -113.99680222215639301612,
                46.86616451027203288181
              ],
              [
                -113.99680205865077301612,
                46.86615119556009288181
              ],
              [
                -113.99664337506968301612,
                46.86615210645388288181
              ]
            ]
          ]
        ]
      }
    },
    {
      "type": "Feature",
      "id": "feature-110",
      "properties": {
        "fillColor": "#cccccc",
        "outlineColor": "#000000",
        "level": "a1",
        "__gm_id": "feature-110",
        "__gm_shape": "polygon"
      },
      "geometry": {
        "type": "MultiPolygon",
        "coordinates": [
          [
            [
              [
                -113.99680222215639301612,
                46.86616451027203288181
              ],
              [
                -113.99676126287601301612,
                46.86616474539188288181
              ],
              [
                -113.99676163676047301612,
                46.86619519182187688181
              ],
              [
                -113.99680273116489301612,
                46.86620596021996288181
              ],
              [
                -113.99680222215639301612,
                46.86616451027203288181
              ]
            ]
          ]
        ]
      }
    },
    {
      "type": "Feature",
      "id": "feature-114",
      "properties": {
        "fillColor": "#cccccc",
        "outlineColor": "#000000",
        "level": "a1",
        "__gm_id": "feature-114",
        "__gm_shape": "polygon"
      },
      "geometry": {
        "type": "MultiPolygon",
        "coordinates": [
          [
            [
              [
                -113.99691173124409301612,
                46.86615056600218288181
              ],
              [
                -113.99691228424969301612,
                46.86618300063432288181
              ],
              [
                -113.99695226944306301612,
                46.86618268195357788181
              ],
              [
                -113.99695170989183301612,
                46.86614986336332288181
              ],
              [
                -113.99691173124409301612,
                46.86615056600218288181
              ]
            ]
          ]
        ]
      }
    },
    {
      "type": "Feature",
      "id": "feature-120",
      "properties": {
        "fillColor": "#cccccc",
        "outlineColor": "#000000",
        "level": "a1",
        "__gm_id": "feature-120",
        "__gm_shape": "polygon"
      },
      "geometry": {
        "type": "MultiPolygon",
        "coordinates": [
          [
            [
              [
                -113.99691259160900301612,
                46.86620134507572288181
              ],
              [
                -113.99691285744927301612,
                46.86621694120760288181
              ],
              [
                -113.99694098613079301612,
                46.86621671708315288181
              ],
              [
                -113.99694117881214301612,
                46.86622802115812288181
              ],
              [
                -113.99695348235871301612,
                46.86622792312551288181
              ],
              [
                -113.99695302383629301612,
                46.86620102291951288181
              ],
              [
                -113.99694191136219301612,
                46.86620111146180888181
              ],
              [
                -113.99691259160900301612,
                46.86620134507572288181
              ]
            ]
          ]
        ]
      }
    },
    {
      "type": "Feature",
      "id": "feature-124",
      "properties": {
        "fillColor": "#cccccc",
        "outlineColor": "#000000",
        "level": "a1",
        "__gm_id": "feature-124",
        "__gm_shape": "polygon"
      },
      "geometry": {
        "type": "MultiPolygon",
        "coordinates": [
          [
            [
              [
                -113.99691285744927301612,
                46.86621694120760288181
              ],
              [
                -113.99691315444593301612,
                46.86623436527637288181
              ],
              [
                -113.99694141452839301612,
                46.86624184997407688181
              ],
              [
                -113.99694098613079301612,
                46.86621671708315288181
              ],
              [
                -113.99691285744927301612,
                46.86621694120760288181
              ]
            ]
          ]
        ]
      }
    },
    {
      "type": "Feature",
      "id": "feature-132",
      "properties": {
        "fillColor": "#cccccc",
        "outlineColor": "#000000",
        "level": "a1",
        "__gm_id": "feature-132",
        "__gm_shape": "polygon"
      },
      "geometry": {
        "type": "MultiPolygon",
        "coordinates": [
          [
            [
              [
                -113.99694141452839301612,
                46.86624184997407688181
              ],
              [
                -113.99700806355283301612,
                46.86624191592585788181
              ],
              [
                -113.99700781766067301612,
                46.86622749019028688181
              ],
              [
                -113.99695348235871301612,
                46.86622792312551288181
              ],
              [
                -113.99694117881214301612,
                46.86622802115812288181
              ],
              [
                -113.99694141452839301612,
                46.86624184997407688181
              ]
            ]
          ]
        ]
      }
    },
    {
      "type": "Feature",
      "id": "feature-136",
      "properties": {
        "fillColor": "#cccccc",
        "outlineColor": "#000000",
        "level": "a1",
        "__gm_id": "feature-136",
        "__gm_shape": "polygon"
      },
      "geometry": {
        "type": "MultiPolygon",
        "coordinates": [
          [
            [
              [
                -113.99695302383629301612,
                46.86620102291951288181
              ],
              [
                -113.99695348235871301612,
                46.86622792312551288181
              ],
              [
                -113.99698567629413301612,
                46.86622766660972288181
              ],
              [
                -113.99698522182459301612,
                46.86620100414842288181
              ],
              [
                -113.99695302383629301612,
                46.86620102291951288181
              ]
            ]
          ]
        ]
      }
    },
    {
      "type": "Feature",
      "id": "feature-140",
      "properties": {
        "fillColor": "#cccccc",
        "outlineColor": "#000000",
        "level": "a1",
        "__gm_id": "feature-140",
        "__gm_shape": "polygon"
      },
      "geometry": {
        "type": "MultiPolygon",
        "coordinates": [
          [
            [
              [
                -113.99698522182459301612,
                46.86620100414842288181
              ],
              [
                -113.99698567629413301612,
                46.86622766660972288181
              ],
              [
                -113.99706382213745301612,
                46.86622704395712288181
              ],
              [
                -113.99706337041721301612,
                46.86620054278495288181
              ],
              [
                -113.99698522182459301612,
                46.86620100414842288181
              ]
            ]
          ]
        ]
      }
    },
    {
      "type": "Feature",
      "id": "feature-144",
      "properties": {
        "label": "A12",
        "fillColor": "#8f623f",
        "outlineColor": "#000000",
        "level": "a1",
        "textSize": 16,
        "__gm_id": "feature-144",
        "__gm_shape": "polygon"
      },
      "geometry": {
        "type": "MultiPolygon",
        "coordinates": [
          [
            [
              [
                -113.99586216282327301612,
                46.86648816711634288181
              ],
              [
                -113.99575217391431301612,
                46.86645958896916288181
              ],
              [
                -113.99571204800195301612,
                46.86653247555441288181
              ],
              [
                -113.99576172588225301612,
                46.86654525968186288181
              ],
              [
                -113.99575381205879301612,
                46.86655963470559888181
              ],
              [
                -113.99580331527922301612,
                46.86657237387911288181
              ],
              [
                -113.99581122910223301612,
                46.86655799885941288181
              ],
              [
                -113.99582283237916301612,
                46.86656098485071288181
              ],
              [
                -113.99586216282327301612,
                46.86648816711634288181
              ]
            ]
          ]
        ]
      }
    },
    {
      "type": "Feature",
      "id": "feature-148",
      "properties": {
        "label": "A11",
        "fillColor": "#8f623f",
        "outlineColor": "#000000",
        "level": "a1",
        "textSize": 16,
        "__gm_id": "feature-148",
        "__gm_shape": "polygon"
      },
      "geometry": {
        "type": "MultiPolygon",
        "coordinates": [
          [
            [
              [
                -113.99597365221401301612,
                46.86651713511561288181
              ],
              [
                -113.99586216282327301612,
                46.86648816711634288181
              ],
              [
                -113.99582283237916301612,
                46.86656098485071288181
              ],
              [
                -113.99584010633268301612,
                46.86656534612874288181
              ],
              [
                -113.99583278882430301612,
                46.86657889400190288181
              ],
              [
                -113.99588228360501301612,
                46.86659139029609688181
              ],
              [
                -113.99588944561488301612,
                46.86657813032318288181
              ],
              [
                -113.99593332731438301612,
                46.86658920944575288181
              ],
              [
                -113.99597365221401301612,
                46.86651713511561288181
              ]
            ]
          ]
        ]
      }
    },
    {
      "type": "Feature",
      "id": "feature-154",
      "properties": {
        "label": "A10",
        "fillColor": "#8f623f",
        "outlineColor": "#000000",
        "level": "a1",
        "textSize": 16,
        "__gm_id": "feature-154",
        "__gm_shape": "polygon"
      },
      "geometry": {
        "type": "MultiPolygon",
        "coordinates": [
          [
            [
              [
                -113.99593332731438301612,
                46.86658920944575288181
              ],
              [
                -113.99598007501953301612,
                46.86660145030937288181
              ],
              [
                -113.99597297619880301612,
                46.86661413830544288181
              ],
              [
                -113.99602205089107301612,
                46.86662697283393288181
              ],
              [
                -113.99602927263065301612,
                46.86661406514398288181
              ],
              [
                -113.99604045286760301612,
                46.86661698911686688181
              ],
              [
                -113.99608066212709301612,
                46.86654512151202288181
              ],
              [
                -113.99597365221401301612,
                46.86651713511561288181
              ],
              [
                -113.99593332731438301612,
                46.86658920944575288181
              ]
            ]
          ]
        ]
      }
    },
    {
      "type": "Feature",
      "id": "feature-158",
      "properties": {
        "label": "A09",
        "fillColor": "#8f623f",
        "outlineColor": "#000000",
        "level": "a1",
        "textSize": 16,
        "__gm_id": "feature-158",
        "__gm_shape": "polygon"
      },
      "geometry": {
        "type": "MultiPolygon",
        "coordinates": [
          [
            [
              [
                -113.99604045286760301612,
                46.86661698911686688181
              ],
              [
                -113.99607624561641301612,
                46.86662619276289288181
              ],
              [
                -113.99606949134630301612,
                46.86663826492455288181
              ],
              [
                -113.99611792509370301612,
                46.86665093181995288181
              ],
              [
                -113.99612479779093301612,
                46.86663864799139288181
              ],
              [
                -113.99613629308227301612,
                46.86664165435911788181
              ],
              [
                -113.99617630716705301612,
                46.86657013563081288181
              ],
              [
                -113.99608066212709301612,
                46.86654512151202288181
              ],
              [
                -113.99604045286760301612,
                46.86661698911686688181
              ]
            ]
          ]
        ]
      }
    },
    {
      "type": "Feature",
      "id": "feature-162",
      "properties": {
        "label": "A08",
        "fillColor": "#8f623f",
        "outlineColor": "#000000",
        "level": "a1",
        "textSize": 16,
        "__gm_id": "feature-162",
        "__gm_shape": "polygon"
      },
      "geometry": {
        "type": "MultiPolygon",
        "coordinates": [
          [
            [
              [
                -113.99613629308227301612,
                46.86664165435911788181
              ],
              [
                -113.99615423311137301612,
                46.86664627065576688181
              ],
              [
                -113.99614669296908301612,
                46.86665974743343288181
              ],
              [
                -113.99619580481726301612,
                46.86667259166666288181
              ],
              [
                -113.99620351157869301612,
                46.86665881708859288181
              ],
              [
                -113.99623312933908301612,
                46.86666656302844888181
              ],
              [
                -113.99627293992494301612,
                46.86659540805645288181
              ],
              [
                -113.99617630716705301612,
                46.86657013563081288181
              ],
              [
                -113.99613629308227301612,
                46.86664165435911788181
              ]
            ]
          ]
        ]
      }
    },
    {
      "type": "Feature",
      "id": "feature-166",
      "properties": {
        "label": "A07",
        "fillColor": "#8f623f",
        "outlineColor": "#000000",
        "level": "a1",
        "textSize": 16,
        "__gm_id": "feature-166",
        "__gm_shape": "polygon"
      },
      "geometry": {
        "type": "MultiPolygon",
        "coordinates": [
          [
            [
              [
                -113.99623312933908301612,
                46.86666656302844888181
              ],
              [
                -113.99626522477981301612,
                46.86667483013964288181
              ],
              [
                -113.99625750196697301612,
                46.86668885816837688181
              ],
              [
                -113.99630791654701301612,
                46.86670183184191288181
              ],
              [
                -113.99631563936094301612,
                46.86668780381547288181
              ],
              [
                -113.99633199653889301612,
                46.86669201316695788181
              ],
              [
                -113.99637137993219301612,
                46.86662047554552288181
              ],
              [
                -113.99627293992494301612,
                46.86659540805645288181
              ],
              [
                -113.99623312933908301612,
                46.86666656302844888181
              ]
            ]
          ]
        ]
      }
    }
  ]
}