{
  "type": "FeatureCollection",
  "features": [
    {
      "type": "Feature",
      "id": "feature-43",
      "properties": {
        "__gm_id": "feature-43",
        "__gm_shape": "polygon",
        "fillColor": "#cccccc",
        "outlineColor": "#000000",
        "level": "a2"
      },
      "geometry": {
        "type": "MultiPolygon",
        "coordinates": [
          [
            [
              [
                -113.99713039496906301612,
                46.86649281351057788181
              ],
              [
                -113.99712388880400301612,
                46.86611111484245788181
              ],
              [
                -113.99570505847884301612,
                46.86612241984321288181
              ],
              [
                -113.99571204800195301612,
                46.86653247555441288181
              ],
              [
                -113.99633199653889301612,
                46.86669201316695788181
              ],
              [
                -113.99631882364356301612,
                46.86671594093559788181
              ],
              [
                -113.99693831452776301612,
                46.86687536023382788181
              ],
              [
                -113.99710991009151301612,
                46.86656366734769788181
              ],
              [
                -113.99709327462145301612,
                46.86655938637000788181
              ],
              [
                -113.99713039496906301612,
                46.86649281351057788181
              ]
            ]
          ]
        ]
      }
    },
    {
      "type": "Feature",
      "id": "feature-49",
      "properties": {
        "__gm_id": "feature-49",
        "__gm_shape": "polygon",
        "fillColor": "#808080",
        "outlineColor": "#000000",
        "label": "Future Phase",
        "textAngle": 22,
        "textSize": 16,
        "level": "a2"
      },
      "geometry": {
        "type": "MultiPolygon",
        "coordinates": [
          [
            [
              [
                -113.99693831452776301612,
                46.86687536023382788181
              ],
              [
                -113.99700127921046301612,
                46.86676098893358288181
              ],
              [
                -113.99638178832582301612,
                46.86660156929693788181
              ],
              [
                -113.99631882364356301612,
                46.86671594093559788181
              ],
              [
                -113.99693831452776301612,
                46.86687536023382788181
              ]
            ]
          ]
        ]
      }
    },
    {
      "type": "Feature",
      "id": "feature-53",
      "properties": {
        "__gm_id": "feature-53",
        "__gm_shape": "polygon",
        "fillColor": "#cccccc",
        "outlineColor": "#000000",
        "level": "a2"
      },
      "geometry": {
        "type": "MultiPolygon",
        "coordinates": [
          [
            [
              [
                -113.99700127921046301612,
                46.86676098893358288181
              ],
              [
                -113.99702456874696301612,
                46.86671868492607788181
              ],
              [
                -113.99696070890473301612,
                46.86670225125749788181
              ],
              [
                -113.99695195404783301612,
                46.86671815392367788181
              ],
              [
                -113.99699271126794301612,
                46.86672864236891788181
              ],
              [
                -113.99697817658822301612,
                46.86675504371811788181
              ],
              [
                -113.99700127921046301612,
                46.86676098893358288181
              ]
            ]
          ]
        ]
      }
    },
    {
      "type": "Feature",
      "id": "feature-57",
      "properties": {
        "__gm_id": "feature-57",
        "__gm_shape": "polygon",
        "fillColor": "#cccccc",
        "outlineColor": "#000000",
        "level": "a2"
      },
      "geometry": {
        "type": "MultiPolygon",
        "coordinates": [
          [
            [
              [
                -113.99697817658822301612,
                46.86675504371811788181
              ],
              [
                -113.99699271126794301612,
                46.86672864236891788181
              ],
              [
                -113.99692023923010301612,
                46.86670999244444788181
              ],
              [
                -113.99690570454982301612,
                46.86673639380325788181
              ],
              [
                -113.99697817658822301612,
                46.86675504371811788181
              ]
            ]
          ]
        ]
      }
    },
    {
      "type": "Feature",
      "properties": {
        "__gm_id": "feature-69",
        "__gm_shape": "polygon",
        "fillColor": "#cccccc",
        "outlineColor": "#000000",
        "level": "a2"
      },
      "geometry": {
        "type": "MultiPolygon",
        "coordinates": [
          [
            [
              [
                -113.99695195404783301612,
                46.86671815392367788181
              ],
              [
                -113.99696070890473301612,
                46.86670225125749788181
              ],
              [
                -113.99697336639462301612,
                46.86667925968729288181
              ],
              [
                -113.99694163291034301612,
                46.86667109339848788181
              ],
              [
                -113.99692022056363301612,
                46.86670998764074788181
              ],
              [
                -113.99695195404783301612,
                46.86671815392367788181
              ]
            ]
          ]
        ]
      },
      "id": "feature-69"
    },
    {
      "type": "Feature",
      "properties": {
        "__gm_id": "feature-73",
        "__gm_shape": "polygon",
        "fillColor": "#cccccc",
        "outlineColor": "#000000",
        "level": "a2"
      },
      "geometry": {
        "type": "MultiPolygon",
        "coordinates": [
          [
            [
              [
                -113.99699148722853301612,
                46.86671017174086788181
              ],
              [
                -113.99702456874696301612,
                46.86671868492607788181
              ],
              [
                -113.99704990347600301612,
                46.86667266591607788181
              ],
              [
                -113.99702428722540301612,
                46.86666607383478388181
              ],
              [
                -113.99701187564901301612,
                46.86668861872516788181
              ],
              [
                -113.99700422096405301612,
                46.86668664887099788181
              ],
              [
                -113.99699148722853301612,
                46.86671017174086788181
              ]
            ]
          ]
        ]
      },
      "id": "feature-73"
    },
    {
      "type": "Feature",
      "properties": {
        "__gm_id": "feature-77",
        "__gm_shape": "polygon",
        "fillColor": "#cccccc",
        "outlineColor": "#000000",
        "level": "a2"
      },
      "geometry": {
        "type": "MultiPolygon",
        "coordinates": [
          [
            [
              [
                -113.99700422096405301612,
                46.86668664887099788181
              ],
              [
                -113.99697336639462301612,
                46.86667925968729288181
              ],
              [
                -113.99696070890473301612,
                46.86670225125749788181
              ],
              [
                -113.99699148722853301612,
                46.86671017174086788181
              ],
              [
                -113.99700422096405301612,
                46.86668664887099788181
              ]
            ]
          ]
        ]
      },
      "id": "feature-77"
    },
    {
      "type": "Feature",
      "properties": {
        "__gm_id": "feature-81",
        "__gm_shape": "polygon",
        "fillColor": "#cccccc",
        "outlineColor": "#000000",
        "level": "a2"
      },
      "geometry": {
        "type": "MultiPolygon",
        "coordinates": [
          [
            [
              [
                -113.99701187564901301612,
                46.86668861872516788181
              ],
              [
                -113.99702428722540301612,
                46.86666607383478388181
              ],
              [
                -113.99695436077266301612,
                46.86664807897023388181
              ],
              [
                -113.99694168353504301612,
                46.86667110642648788181
              ],
              [
                -113.99701187564901301612,
                46.86668861872516788181
              ]
            ]
          ]
        ]
      },
      "id": "feature-81"
    },
    {
      "type": "Feature",
      "properties": {
        "__gm_id": "feature-85",
        "__gm_shape": "polygon",
        "fillColor": "#cccccc",
        "outlineColor": "#000000",
        "level": "a2"
      },
      "geometry": {
        "type": "MultiPolygon",
        "coordinates": [
          [
            [
              [
                -113.99708518010780301612,
                46.86650388017742388181
              ],
              [
                -113.99711123578732301612,
                46.86645637545558788181
              ],
              [
                -113.99707957691901301612,
                46.86644825851172788181
              ],
              [
                -113.99705368270583301612,
                46.86649546885434388181
              ],
              [
                -113.99708518010780301612,
                46.86650388017742388181
              ]
            ]
          ]
        ]
      },
      "id": "feature-85"
    },
    {
      "type": "Feature",
      "properties": {
        "__gm_id": "feature-89",
        "__gm_shape": "polygon",
        "fillColor": "#cccccc",
        "outlineColor": "#000000",
        "level": "a2"
      },
      "geometry": {
        "type": "MultiPolygon",
        "coordinates": [
          [
            [
              [
                -113.99707957691901301612,
                46.86644825851172788181
              ],
              [
                -113.99705368270583301612,
                46.86649546885434388181
              ],
              [
                -113.99703392140880301612,
                46.86649040230469788181
              ],
              [
                -113.99704382188666301612,
                46.86647447249737788181
              ],
              [
                -113.99704237434916301612,
                46.86644662001635188181
              ],
              [
                -113.99707442697033301612,
                46.86644662001635188181
              ],
              [
                -113.99707957691901301612,
                46.86644825851172788181
              ]
            ]
          ]
        ]
      },
      "id": "feature-89"
    },
    {
      "type": "Feature",
      "properties": {
        "__gm_id": "feature-95",
        "__gm_shape": "polygon",
        "fillColor": "#cccccc",
        "outlineColor": "#000000",
        "level": "a2"
      },
      "geometry": {
        "type": "MultiPolygon",
        "coordinates": [
          [
            [
              [
                -113.99656522887901301612,
                46.86611556615102788181
              ],
              [
                -113.99691081901561301612,
                46.86611281254650788181
              ],
              [
                -113.99691201489221301612,
                46.86618297147382388181
              ],
              [
                -113.99695189101588301612,
                46.86618265374790388181
              ],
              [
                -113.99695264443980301612,
                46.86622685507899788181
              ],
              [
                -113.99694134239343301612,
                46.86622694513212788181
              ],
              [
                -113.99694159687613301612,
                46.86624187481394188181
              ],
              [
                -113.99656571819896301612,
                46.86614478103823788181
              ],
              [
                -113.99656522887901301612,
                46.86611556615102788181
              ]
            ]
          ]
        ]
      },
      "id": "feature-95"
    },
    {
      "type": "Feature",
      "properties": {
        "__gm_id": "feature-99",
        "__gm_shape": "polygon",
        "fillColor": "#cccccc",
        "outlineColor": "#000000",
        "level": "a2"
      },
      "geometry": {
        "type": "MultiPolygon",
        "coordinates": [
          [
            [
              [
                -113.99691081901561301612,
                46.86611281254650788181
              ],
              [
                -113.99712388880400301612,
                46.86611111484245788181
              ],
              [
                -113.99712677095657301612,
                46.86628020306509288181
              ],
              [
                -113.99708713950719301612,
                46.86628051884071788181
              ],
              [
                -113.99694159687613301612,
                46.86624187481394188181
              ],
              [
                -113.99694134239343301612,
                46.86622694513212788181
              ],
              [
                -113.99695264443980301612,
                46.86622685507899788181
              ],
              [
                -113.99695189101588301612,
                46.86618265374790388181
              ],
              [
                -113.99691201489221301612,
                46.86618297147382388181
              ],
              [
                -113.99691081901561301612,
                46.86611281254650788181
              ]
            ]
          ]
        ]
      },
      "id": "feature-99"
    },
    {
      "type": "Feature",
      "properties": {
        "__gm_id": "feature-103",
        "__gm_shape": "polygon",
        "fillColor": "#cccccc",
        "outlineColor": "#000000",
        "level": "a2"
      },
      "geometry": {
        "type": "MultiPolygon",
        "coordinates": [
          [
            [
              [
                -113.99694159687613301612,
                46.86624187481394188181
              ],
              [
                -113.99694134239343301612,
                46.86622694513212788181
              ],
              [
                -113.99700725318668301612,
                46.86622641996257788181
              ],
              [
                -113.99700750862535301612,
                46.86624140573738788181
              ],
              [
                -113.99694159687613301612,
                46.86624187481394188181
              ]
            ]
          ]
        ]
      },
      "id": "feature-103"
    },
    {
      "type": "Feature",
      "properties": {
        "__gm_id": "feature-107",
        "__gm_shape": "polygon",
        "fillColor": "#cccccc",
        "outlineColor": "#000000",
        "level": "a2"
      },
      "geometry": {
        "type": "MultiPolygon",
        "coordinates": [
          [
            [
              [
                -113.99695221367091301612,
                46.86620158306192788181
              ],
              [
                -113.99695264443980301612,
                46.86622685507899788181
              ],
              [
                -113.99698549510014301612,
                46.86622659332835388181
              ],
              [
                -113.99698506508740301612,
                46.86620136589866788181
              ],
              [
                -113.99695221367091301612,
                46.86620158306192788181
              ]
            ]
          ]
        ]
      },
      "id": "feature-107"
    },
    {
      "type": "Feature",
      "properties": {
        "__gm_id": "feature-111",
        "__gm_shape": "polygon",
        "fillColor": "#cccccc",
        "outlineColor": "#000000",
        "level": "a2"
      },
      "geometry": {
        "type": "MultiPolygon",
        "coordinates": [
          [
            [
              [
                -113.99700725318668301612,
                46.86622641996257788181
              ],
              [
                -113.99698549510014301612,
                46.86622659332835388181
              ],
              [
                -113.99698506508740301612,
                46.86620136589866788181
              ],
              [
                -113.99706293896249301612,
                46.86620074540741788181
              ],
              [
                -113.99706337109375301612,
                46.86622609715013788181
              ],
              [
                -113.99700725318668301612,
                46.86622641996257788181
              ]
            ]
          ]
        ]
      },
      "id": "feature-111"
    },
    {
      "type": "Feature",
      "properties": {
        "__gm_id": "feature-115",
        "__gm_shape": "polygon",
        "fillColor": "#cccccc",
        "outlineColor": "#000000",
        "level": "a2",
        "label": "Pr.Patio",
        "textSize": 10,
        "textAngle": 21
      },
      "geometry": {
        "type": "MultiPolygon",
        "coordinates": [
          [
            [
              [
                -113.99632261528613301612,
                46.86668959899833788181
              ],
              [
                -113.99623360936076301612,
                46.86666669423368788181
              ],
              [
                -113.99622231372740301612,
                46.86668721208005788181
              ],
              [
                -113.99631104467992301612,
                46.86671004607513188181
              ],
              [
                -113.99632261528613301612,
                46.86668959899833788181
              ]
            ]
          ]
        ]
      },
      "id": "feature-115"
    },
    {
      "type": "Feature",
      "properties": {
        "__gm_id": "feature-119",
        "__gm_shape": "polygon",
        "fillColor": "#cccccc",
        "outlineColor": "#000000",
        "level": "a2",
        "label": "Pr.Patio",
        "textSize": 10,
        "textAngle": 22
      },
      "geometry": {
        "type": "MultiPolygon",
        "coordinates": [
          [
            [
              [
                -113.99622231372740301612,
                46.86668721208005788181
              ],
              [
                -113.99623360936076301612,
                46.86666669423368788181
              ],
              [
                -113.99614550379752301612,
                46.86664402115812788181
              ],
              [
                -113.99613420177235301612,
                46.86666455062325788181
              ],
              [
                -113.99622231372740301612,
                46.86668721208005788181
              ]
            ]
          ]
        ]
      },
      "id": "feature-119"
    },
    {
      "type": "Feature",
      "properties": {
        "__gm_id": "feature-123",
        "__gm_shape": "polygon",
        "fillColor": "#cccccc",
        "outlineColor": "#000000",
        "level": "a2",
        "label": "Pr.Patio",
        "textSize": 10,
        "textAngle": 22
      },
      "geometry": {
        "type": "MultiPolygon",
        "coordinates": [
          [
            [
              [
                -113.99613660001476301612,
                46.86664172985925788181
              ],
              [
                -113.99604843880285301612,
                46.86661904245253188181
              ],
              [
                -113.99603702004197301612,
                46.86663978397141288181
              ],
              [
                -113.99612464399654301612,
                46.86666233311118388181
              ],
              [
                -113.99613660001476301612,
                46.86664172985925788181
              ]
            ]
          ]
        ]
      },
      "id": "feature-123"
    },
    {
      "type": "Feature",
      "properties": {
        "__gm_id": "feature-127",
        "__gm_shape": "polygon",
        "fillColor": "#cccccc",
        "outlineColor": "#000000",
        "level": "a2",
        "label": "Pr.Patio",
        "textSize": 10,
        "textAngle": 22
      },
      "geometry": {
        "type": "MultiPolygon",
        "coordinates": [
          [
            [
              [
                -113.99603468050202301612,
                46.86661550189029788181
              ],
              [
                -113.99593757638003301612,
                46.86659051310227188181
              ],
              [
                -113.99592672945275301612,
                46.86661021592761288181
              ],
              [
                -113.99602280381835301612,
                46.86663493971014288181
              ],
              [
                -113.99603468050202301612,
                46.86661550189029788181
              ]
            ]
          ]
        ]
      },
      "id": "feature-127"
    },
    {
      "type": "Feature",
      "properties": {
        "__gm_id": "feature-133",
        "__gm_shape": "polygon",
        "fillColor": "#cccccc",
        "outlineColor": "#000000",
        "level": "a2",
        "label": "Pr.Patio",
        "textSize": 10,
        "textAngle": 22
      },
      "geometry": {
        "type": "MultiPolygon",
        "coordinates": [
          [
            [
              [
                -113.99592809907733301612,
                46.86658807421145788181
              ],
              [
                -113.99583183966849301612,
                46.86656330278964788181
              ],
              [
                -113.99582101389093301612,
                46.86658296720824788181
              ],
              [
                -113.99591745217305301612,
                46.86660778465258788181
              ],
              [
                -113.99592809907733301612,
                46.86658807421145788181
              ]
            ]
          ]
        ]
      },
      "id": "feature-133"
    },
    {
      "type": "Feature",
      "properties": {
        "__gm_id": "feature-137",
        "__gm_shape": "polygon",
        "fillColor": "#cccccc",
        "outlineColor": "#000000",
        "level": "a2",
        "label": "Pr.Patio",
        "textSize": 10,
        "textAngle": 22
      },
      "geometry": {
        "type": "MultiPolygon",
        "coordinates": [
          [
            [
              [
                -113.99581929647850301612,
                46.86656007492090288181
              ],
              [
                -113.99572263286258301612,
                46.86653519946733788181
              ],
              [
                -113.99571174246774301612,
                46.86655498127095788181
              ],
              [
                -113.99580773932171301612,
                46.86657968513029788181
              ],
              [
                -113.99581929647850301612,
                46.86656007492090288181
              ]
            ]
          ]
        ]
      },
      "id": "feature-137"
    },
    {
      "type": "Feature",
      "properties": {
        "__gm_id": "feature-141",
        "__gm_shape": "polygon",
        "fillColor": "#8f623f",
        "outlineColor": "#000000",
        "level": "a2",
        "label": "A07",
        "textSize": 16
      },
      "geometry": {
        "type": "MultiPolygon",
        "coordinates": [
          [
            [
              [
                -113.99623360936076301612,
                46.86666669423368788181
              ],
              [
                -113.99633199653889301612,
                46.86669201316695788181
              ],
              [
                -113.99637137993219301612,
                46.86662047554552188181
              ],
              [
                -113.99627339092075301612,
                46.86659525904258788181
              ],
              [
                -113.99623360936076301612,
                46.86666669423368788181
              ]
            ]
          ]
        ]
      },
      "id": "feature-141"
    },
    {
      "type": "Feature",
      "properties": {
        "__gm_id": "feature-147",
        "__gm_shape": "polygon",
        "fillColor": "#8f623f",
        "outlineColor": "#000000",
        "level": "a2",
        "label": "A08",
        "textSize": 16
      },
      "geometry": {
        "type": "MultiPolygon",
        "coordinates": [
          [
            [
              [
                -113.99613660001476301612,
                46.86664172985925788181
              ],
              [
                -113.99623360936076301612,
                46.86666669423368788181
              ],
              [
                -113.99627339092075301612,
                46.86659525904258788181
              ],
              [
                -113.99617728745374301612,
                46.86657024188867188181
              ],
              [
                -113.99613660001476301612,
                46.86664172985925788181
              ]
            ]
          ]
        ]
      },
      "id": "feature-147"
    },
    {
      "type": "Feature",
      "properties": {
        "__gm_id": "feature-151",
        "__gm_shape": "polygon",
        "fillColor": "#8f623f",
        "outlineColor": "#000000",
        "level": "a2",
        "label": "A09",
        "textSize": 16
      },
      "geometry": {
        "type": "MultiPolygon",
        "coordinates": [
          [
            [
              [
                -113.99613660001476301612,
                46.86664172985925788181
              ],
              [
                -113.99604030567540301612,
                46.86661694947332788181
              ],
              [
                -113.99607998214334301612,
                46.86654487939762788181
              ],
              [
                -113.99617728745374301612,
                46.86657024188867188181
              ],
              [
                -113.99613660001476301612,
                46.86664172985925788181
              ]
            ]
          ]
        ]
      },
      "id": "feature-151"
    },
    {
      "type": "Feature",
      "properties": {
        "__gm_id": "feature-155",
        "__gm_shape": "polygon",
        "fillColor": "#8f623f",
        "outlineColor": "#000000",
        "level": "a2",
        "label": "A10",
        "textSize": 16
      },
      "geometry": {
        "type": "MultiPolygon",
        "coordinates": [
          [
            [
              [
                -113.99604030567540301612,
                46.86661694947332788181
              ],
              [
                -113.99593341944179301612,
                46.86658944335454788181
              ],
              [
                -113.99597326493067301612,
                46.86651706622791788181
              ],
              [
                -113.99607998214334301612,
                46.86654487939762788181
              ],
              [
                -113.99604030567540301612,
                46.86661694947332788181
              ]
            ]
          ]
        ]
      },
      "id": "feature-155"
    },
    {
      "type": "Feature",
      "properties": {
        "__gm_id": "feature-159",
        "__gm_shape": "polygon",
        "fillColor": "#8f623f",
        "outlineColor": "#000000",
        "level": "a2",
        "label": "A11",
        "textSize": 16
      },
      "geometry": {
        "type": "MultiPolygon",
        "coordinates": [
          [
            [
              [
                -113.99593341944179301612,
                46.86658944335454788181
              ],
              [
                -113.99582254312284301612,
                46.86656091041252188181
              ],
              [
                -113.99586226779262301612,
                46.86648875270637788181
              ],
              [
                -113.99597326493067301612,
                46.86651706622791788181
              ],
              [
                -113.99593341944179301612,
                46.86658944335454788181
              ]
            ]
          ]
        ]
      },
      "id": "feature-159"
    },
    {
      "type": "Feature",
      "properties": {
        "__gm_id": "feature-163",
        "__gm_shape": "polygon",
        "fillColor": "#8f623f",
        "outlineColor": "#000000",
        "level": "a2",
        "label": "A12",
        "textSize": 16
      },
      "geometry": {
        "type": "MultiPolygon",
        "coordinates": [
          [
            [
              [
                -113.99582254312284301612,
                46.86656091041252188181
              ],
              [
                -113.99571204800195301612,
                46.86653247555441288181
              ],
              [
                -113.99575217391431301612,
                46.86645958896915788181
              ],
              [
                -113.99586226779262301612,
                46.86648875270637788181
              ],
              [
                -113.99582254312284301612,
                46.86656091041252188181
              ]
            ]
          ]
        ]
      },
      "id": "feature-163"
    },
    {
      "type": "Feature",
      "properties": {
        "__gm_id": "feature-687",
        "__gm_shape": "polygon",
        "fillColor": "#b0966a",
        "outlineColor": "#000000",
        "level": "a2"
      },
      "geometry": {
        "type": "MultiPolygon",
        "coordinates": [
          [
            [
              [
                -113.99638178832582301612,
                46.86660156929693788181
              ],
              [
                -113.99637137993219301612,
                46.86662047554552188181
              ],
              [
                -113.99575217391431301612,
                46.86645958896915788181
              ],
              [
                -113.99576241046687301612,
                46.86644117276543788181
              ],
              [
                -113.99638178832582301612,
                46.86660156929693788181
              ]
            ]
          ]
        ]
      },
      "id": "feature-687"
    }
  ]
}