{
  "type": "FeatureCollection",
  "features": [
    {
      "type": "Feature",
      "id": "feature-32",
      "properties": {
        "__gm_id": "feature-32",
        "__gm_shape": "polygon",
        "fillColor": "#cccccc",
        "outlineColor": "#000000",
        "label": "Stairs",
        "textAngle": 292,
        "textSize": 14
      },
      "geometry": {
        "type": "MultiPolygon",
        "coordinates": [
          [
            [
              [
                -113.99637356690995,
                46.86655465163568
              ],
              [
                -113.99633704561677,
                46.86662081814413
              ],
              [
                -113.99636970194423,
                46.86662898925218
              ],
              [
                -113.99640610024397,
                46.866563045604835
              ],
              [
                -113.99637356690995,
                46.86655465163568
              ]
            ]
          ]
        ]
      }
    },
    {
      "type": "Feature",
      "id": "feature-40",
      "properties": {
        "__gm_id": "feature-40",
        "__gm_shape": "polygon",
        "fillColor": "#cccccc",
        "outlineColor": "#000000",
        "label": "Lifts",
        "textAngle": 89,
        "textSize": 14
      },
      "geometry": {
        "type": "MultiPolygon",
        "coordinates": [
          [
            [
              [
                -113.99572379966796,
                46.86616641502809
              ],
              [
                -113.99572508494435,
                46.86623715421595
              ],
              [
                -113.99576187445098,
                46.86623684175183
              ],
              [
                -113.99576059761216,
                46.86616656722964
              ],
              [
                -113.99572379966796,
                46.86616641502809
              ]
            ]
          ]
        ]
      }
    },
    {
      "type": "Feature",
      "id": "feature-44",
      "properties": {
        "__gm_id": "feature-44",
        "__gm_shape": "polygon",
        "fillColor": "#cccccc",
        "outlineColor": "#000000",
        "label": "Lifts",
        "textAngle": 290,
        "textSize": 14
      },
      "geometry": {
        "type": "MultiPolygon",
        "coordinates": [
          [
            [
              [
                -113.99602340526775,
                46.866539895438166
              ],
              [
                -113.99605326142452,
                46.86648580424327
              ],
              [
                -113.99601770929621,
                46.8664766313818
              ],
              [
                -113.99598786179722,
                46.866530706905394
              ],
              [
                -113.99602340526775,
                46.866539895438166
              ]
            ]
          ]
        ]
      }
    },
    {
      "type": "Feature",
      "properties": {
        "__gm_id": "feature-1711",
        "__gm_shape": "polygon",
        "fillColor": "#cccccc",
        "outlineColor": "#000000",
        "label": "Stairs",
        "textAngle": 89,
        "textSize": 14
      },
      "geometry": {
        "type": "MultiPolygon",
        "coordinates": [
          [
            [
              [
                -113.99594347190168,
                46.86620188018466
              ],
              [
                -113.99594276478855,
                46.8661412415656
              ],
              [
                -113.99590553895264,
                46.866141444484754
              ],
              [
                -113.9959062470631,
                46.86620216840731
              ],
              [
                -113.99594347190168,
                46.86620188018466
              ]
            ]
          ]
        ]
      },
      "id": "feature-1711"
    }
  ]
}


Это надо добавить во все 