{
  "type": "FeatureCollection",
  "features": [
    {
      "type": "Feature",
      "properties": {
        "__mid": "m14",
        "type": "wc",
        "level": "1"
      },
      "geometry": {
        "type": "Point",
        "coordinates": [
          -113.99595626880787,
          46.866391388721134
        ]
      }
    },
    {
      "type": "Feature",
      "properties": {
        "__mid": "m15",
        "type": "wc",
        "level": "1"
      },
      "geometry": {
        "type": "Point",
        "coordinates": [
          -113.99594967010694,
          46.866363788695764
        ]
      }
    }
  ]
}